Latitude	Longitude	Median Depth 4Th	County	Facility ID	Facility Name	Max Depth 4Th	Parent Name	Street
32.748316	-91.170707	519	EAST CARROLL PARISH	7125WMYRNT525PR	MYRIANT CORP	850	MYRIANT CORP	525 PORT RD
29.775416	-91.734954	458	ST MARY PARISH	70562SHLND2MILE	ORION ENGINEERED CARBONS-IVANHOE CARBON BLACK PLANT	516		7095 LA HWY 83
29.939266	-90.348408	449.5	ST CHARLES PARISH	70047BNGCR12466	BUNGE NA INC	599	BUNGE N.A. INC	12466 RIVER RD
29.769207	-93.34096	422	CAMERON PARISH	7063WMRTNP332DA	MARTIN OPERATING PTNR - CAMERON 7	502	MARTIN OPERATING PTNR LP	332 DAVIS RD
29.41411	-90.702335	409	TERREBONNE PARISH	70353ZPTHY6780S	ZAPATA PROTEIN (USA) INC.	466	ZAPATA CORP	6780 SHRIMPERS ROW
29.655411	-92.370809	391	VERMILION PARISH	7054WFRSHW41937	FRESHWATER CITY DOCK	413	MARTIN MIDSTREAM PTNRS LP	41937 LA HWY 3147
29.814412	-91.823746	388	IBERIA PARISH	70560MRTNSHIGHW	MORTON INTERNATIONAL MORTON SALT DIV	495	MORTON INTERNATIONAL INC	11217 MORTON RD
29.800386	-93.336947	388	CAMERON PARISH	70631SCSCM148MA	MARTIN OPERATING PTNR - CAMERON 6	450	MARTIN OPERATING PTNR LP	148 MARSHALL ST
29.800442	-93.339197	387	CAMERON PARISH	70631LSNMNPOGYP	LOUISIANA MENHADEN CO. INC.	449		POGY PLANT RD.
29.80472	-93.34306	379	CAMERON PARISH	70631MDSTR189AG	MIDSTREAM FUEL SERVICE LLC (CAMERON WEST)	449	MARTIN OPERATING PTNR LP	189 A GULF BCH HWY
29.937616	-91.83645	372	IBERIA PARISH	70560LBRGS5310C	OIL BARGES INC.	470	UNIFAB INTERNATIONAL INC	5310 CORNELIUS P. VOORHIES
29.9266	-91.829107	370	IBERIA PARISH	70560CHRTN3415E	CHART ENERGY & CHEMICALS INC	475	CHART INDUSTRIES INC	3415 EARL B. WILSON RD
30.07225	-89.83953	369	ORLEANS PARISH	70129NTDST19807	UNITED STATES MARINE INC.	442		19807 CHEF MENTEUR HWY
29.77086	-91.7553	369	ST MARY PARISH	70538TWNBR322TW	TWIN BROTHERS MARINE LLC	496		322 TWIN BROTHERS RD
29.786043	-92.153738	368	VERMILION PARISH	7051WMRTNP24823	MARTIN OPERATING PTNR - INTRACOASTAL CITY SR333	449	MARTIN OPERATING PTNR LP	24823 LA HWY 333
29.34266	-90.73279	358	TERREBONNE PARISH	7035WMRTNP9576G	MARTIN OPERATING PTNR - DULAC	439	MARTIN OPERATING PTNR LP	9576 GRAND CAILLOU RD
29.808828	-93.345187	357	CAMERON PARISH	70631MDSTR127WA	MARTIN OPERATING PTNR LP-CAMERON EAST	417	MARTIN MIDSTREAM PTNRS LP	127 WAKEFIELD RD
29.93877	-91.83021	356	IBERIA PARISH	70560MGNTC101IR	ARSC ENERGY SERVICES OMEGA LLC	471		4418 PESSON RD
29.93851	-91.97703	356	IBERIA PARISH	7052WSHWGL144TW	CB&I ENERGY SERVICES LLC	418	THE SHAW GROUP INC	10404 TWIN PORT RD
29.78278	-92.15667	352	VERMILION PARISH	70510MDSTR2535L	MARTIN OPERATING PTNR LP (INTRACOASTAL CITY)	449	MARTIN OPERATING PTNR LP	25305 LA HWY 333
29.55104	-90.69221	345	TERREBONNE PARISH	7036WLSHPL367DI	LASHIP LLC	426		367 DICKSON RD
29.8	-91.8	337	IBERIA PARISH	70560SDPRTLAHWY	U.S. DOE WEEKS ISLAND SPR SITE	471	US DEPARTMENT OF ENERGY	LA. HWY. 83, 14 MILES S. NEW IBERIA
29.94873	-91.85083	335	IBERIA PARISH	70560NVRSL5007P	DYNAMIC INDUSTRIES TOPSIDE WEST YARD	462		6005 PORT RD
29.53489	-90.67269	331	TERREBONNE PARISH	70363NRTHM28NAM	NORTH AMERICAN FABRICATORS LLC	426		208 AMERICAN BLVD
30.21403	-92.00355	324.5	LAFAYETTE PARISH	70501TRPPR500GU	TRAPPEY'S FINE FOODS INC.	650		500 GUIDRY ST.
29.91715	-92.111149	324	VERMILION PARISH	7051WCDNCN1712W	ACADIAN CONTRACTORS INC	373	ACADIAN CONTRACTORS INC	17102 W HWY 330
29.54405	-90.68954	320	TERREBONNE PARISH	70363DLPHN4THMP	GULF ISLAND SERVICES LLC	425	GULF ISLAND FABRICATION INC	400 THOMPSON RD
29.54296	-90.69774	320	TERREBONNE PARISH	70363GLFSL583TH	GULF ISLAND FABRICATION LLC	421	GULF ISLAND FABRICATION INC	583 THOMPSON RD
29.77113	-93.462699	316	CAMERON PARISH	70631ZPTHYHC69B	OMEGA PROTEIN INC CAMERON PLANT	494	OMEGA PROTEIN INC	391 GULF BEACH HWY
29.238103	-89.386139	314	PLAQUEMINES PARISH	70091DYNGY1565T	TARGA MIDSTREAM SERVICES L.P.	387	TARGA RESOURCES LLC	1565 TIDEWATER RD
29.92844	-91.829822	313	IBERIA PARISH	70560TPSDF4800C	DYNAMIC FACILITIES TOPSIDE EAST YARD	475		4800 CARL BAUER RD
30.23454	-89.769691	312	ST TAMMANY PARISH	7046WLFRGL47NHW	LAFARGE LAKESHORE READY MIX	465	LAFARGE NA	470 E HOWZE BEACH RD
29.770846	-93.463206	312	CAMERON PARISH	7063WMRTNP521GU	MARTIN OPERATING PTNR - CAMERON 8	481	MARTIN OPERATING PTNR LP	521 GULF BEACH HWY
29.237444	-89.38561	309	PLAQUEMINES PARISH	70091SCSVNHWY23	ASCO-US VENICE	387	ASCO-US	HWY. 23 TEXACO YARD
29.54928	-90.39371	305	LAFOURCHE PARISH	70373BLLNGLAHWY	BOLLINGER LAROSE LLC	360	BOLLINGER SHIPYARDS LLC	1515 HWY 24
29.8211	-92.1334	304	VERMILION PARISH	70510ZPTHYWY333	OMEGA PROTEIN-ABBEVILLE PLANT	450	OMEGA PROTEIN INC	9730 ANDREW RD
29.55222	-90.533735	303	LAFOURCHE PARISH	70343CDNSHLAHWY	ACADIAN SHIPYARD INC	401		723 HWY 24
29.943831	-91.844729	303	IBERIA PARISH	70560NTCNW5315C	CAMERON SOLUTIONS INC	467	CAMERON INTERNATIONAL CORP	5315 CURTIS LN
29.943868	-91.844729	302	IBERIA PARISH	70560BYPPC5310C	THE BAYOU COS LLC	467	BAYOU HOLDINGS OF NEW IBERIA	5200 CURTIS LN
29.945283	-91.84474	301	IBERIA PARISH	70560PRMPP5811C	PERMA-PIPE OIL & GAS	466	PERMA PIPE INTERNATIONAL HOLDINGS INC	5008-11 CURTIS LN
29.94553	-91.83641	299	IBERIA PARISH	70560XCLBR462SL	EXCALIBAR MINERALS LLC	468	NEWPARK RESOURCES INC	4602 S LEWIS ST
29.65365	-90.53592	296	LAFOURCHE PARISH	70374LCKPRHWY30	HALTER MARINE INC.	298	TRINITY INDUSTRIES INC	6130 HWY. 308
29.949014	-91.826522	295	IBERIA PARISH	7056WDCRRS582PR	4-D CORROSION CONTROL SPECIALI STS INC WEST YARD	359	4-D CORROSION CONTROL SPECIALISTS INC	5802 PORT RD
29.94395	-91.83958	292	IBERIA PARISH	705604DCRR4911S	4-D CORROSION CONTROL SPECIALI STS INC-MAIN YARD	468	4-D CORROSION CONTROL SPECIALISTS INC	4911 S LEWIS ST
29.657473	-91.120115	290	ST MARY PARISH	70381CNRDS29DUH	CONRAD SHIPYARD LLC (DEEPWATER YARD)	383	CONRAD INDUSTRIES INC	1199 DUHON BLVD
29.64444	-91.09306	289	ST MARY PARISH	70340MDSTR16DUH	MARTIN OPERATING PTNR - AMELIA	370	MARTIN OPERATING PTNR LP	106 DUHON BYP
29.774031	-90.080702	287	JEFFERSON PARISH	70072LMNMBENDOF	ALUMINUM BOATS INC.	348	TRINITY INDUSTRIES INC	END OF ROSETHORNE RD.
29.74778	-93.87101	287	CAMERON PARISH	7063WTXSBN9243G	TXI-SABINE PASS CBP	636	MARTIN MARIETTA MATERIALS INC	9243 GULF BEACH HWY
29.574069	-90.594061	280	LAFOURCHE PARISH	7034WBRGDR136DR	LEBEOUF BROS TOWING LLC DBA BOURG DRY DOCK & SERVICE	381	LEBEOUF BROS TOWING LLC	136 DRY DOCK RD
30.064578	-93.354688	280	CALCASIEU PARISH	7066WRDYMX7929D	READY MIX USA LLC - SULPHUR PLANT	420	CEMEX INC	7929 DOCK BOARD RD
29.585708	-90.375996	277	LAFOURCHE PARISH	70373NRTHM800IN	NORTH AMERICAN SHIPBUILDING LLC-LAROSE SHIPYARD	333		800 INDUSTRIAL PARK RD
29.903808	-91.726086	275	IBERIA PARISH	70544NTRPRRTE1P	M. A. PATOUT & SON LTD., ENTERPRISE FACTORY	496		3512 J. PATOUT BURNS RD., OFF LA. HWY. 673
29.573733	-90.706523	273	TERREBONNE PARISH	70360GMCXX202IN	WEATHERFORD GEMOCO	416	WEATHERFORD INTERNATIONAL LTD	202 INDUSTRIAL BLVD
29.66993	-91.09315	266	ST MARY PARISH	7038WCNRDL9752U	CONRAD ALUMINUM LLC	347	CONRAD INDUSTRIES INC	9752 US HWY 182 E
30.096415	-93.332715	262	CALCASIEU PARISH	70665MRNCL8086G	BOLLINGER CALCASIEU LLC	405	BOLLINGER SHIPYARDS INC	8086 GLOBAL DR
29.128322	-90.196475	256	LAFOURCHE PARISH	7035WFRCHN3ADAM	C-TERMINAL LLC	302	MARTIN OPERATING PTNR LP	300 ADAM TED GISCLAIR RD
29.663202	-91.127022	256	ST MARY PARISH	70380MRNSHHIGHW	MARINE SHALE PROCESSORS INC.	390		9828 HWY. 90
29.891146	-92.121563	256	VERMILION PARISH	70510GRNDS1761S	GRAND ISLE SHIPYARD	390	NANA DEVELOPMENT CORP	SCHRIEFER DR
32.68862	-92.08733	254	OUACHITA PARISH	71280MCFRTLOUIS	KOCH FERTILIZER LLC - STERLINGTON TERMINAL	366	KOCH INDUSTRIES INC	520 SOLVENT AVE
30.110144	-93.276949	252	CALCASIEU PARISH	7060WSHWMD3191W	SHAW MODULAR SOLUTIONS	381	MCDERMOTT INTERNATIONAL INC.	3191 W LINCOLN RD
29.647364	-91.122702	250	ST MARY PARISH	70340BLLNG697DE	BOLLINGER MORGAN CITY INC.	390	BOLLINGER SHIPYARDS INC	697 DE GRAVELLE RD.
30.23033	-93.28575	242.5	CALCASIEU PARISH	70669PPGNDCOLUM	EAGLE US 2 LLC	346	WESTLAKE CHEMICAL CORP	1300 PPG DR
29.69058	-91.20777	242	ST MARY PARISH	7038WBKRHG1FIRS	BAKER HUGHES OILFIELD OPERATIONS LLC	363	BAKER HUGHES A GE CO LLC	100 FIRST STREET
30.502665	-91.173395	233	EAST BATON ROUGE PARISH	70821CPLYM5955S	EXXONMOBIL BATON ROUGE CHEMICAL PLANT NORTH	582	EAST WEST COPOLYMER & RUBBER LLC	1836 SHADA AVE
29.94631	-91.81497	231	IBERIA PARISH	70560XTRMN3615K	OFFSHORE INLAND MARINE & OILFIELD SERVICES	473		3615 KINGSTON RD
29.23845	-89.99088	229	JEFFERSON PARISH	70358GRNDS432MI	GRAND ISLE SHIPYARD	322		432 MINNICH
30.78196	-89.86162	228	WASHINGTON PARISH	70427GYLRD42WIL	GAYLORD CHEMICAL CO LLC	401	GAYLORD CHEMICAL CO LLC	420 WILLIS AVE
29.576913	-90.715577	228	TERREBONNE PARISH	70363SKGTS1180M	OIL STATES INDUSTRIES - HOUMA	410	OIL STATES INDUSTRIES	1180 MULBERRY RD
29.127224	-90.196032	227	LAFOURCHE PARISH	7035WBLLNG236AD	BOLLINGER FOURCHON NORTH	317	BOLLINGER SHIPYARDS LLC	236 ADAM TED GISCLAIR RD
29.61486	-90.4901	227	LAFOURCHE PARISH	70374BLLNGLAHWY	BOLLINGER SHIPYARDS LOCKPORT LLC	326	BOLLINGER SHIPYARDS LLC	8365 HWY 308 S
29.65	-91.122222	227	ST MARY PARISH	70340MGPRT1087D	OMEGA PROTEIN INC.	392	OMEGA PROTEIN INC	1087 DEGRAVELLE RD.
29.55431	-90.67573	226	TERREBONNE PARISH	70363HMCTN209EW	TUBOSCOPE VETCO INTERNATIONAL INC HOUMA COATING PLANT	438	TUBOSCOPE VETCO INTERNATIONAL INC	209 E. WOODLAWN RANCH RD.
30.197356	-92.596943	225	ACADIA PARISH	70556GSXRCUSHWY	GSX RECOVERY SYSTEMS INC	259	GSX CHEMICAL SERVICES INC	U.S. HWY. 90
29.648543	-91.112045	220	ST MARY PARISH	70340MCDRMDEGRA	BOLLINGER MARINE FABRICATORS LLC	327	BOLLINGER SHIPYARDS LOCKPORT LLC	816 BOLLINGER LN
29.114674	-90.192855	219	LAFOURCHE PARISH	7035WMRTNP191AJ	MARTIN OPERATING PTNR-FOURCHON 15	339	MARTIN MIDSTREAM PTNRS LP	191 AJ ESTAY RD
29.55996	-90.6811	218	TERREBONNE PARISH	7036WVLLRC1914G	VALLOUREC TUBE-ALLOY LLC	430	VALLOUREC HOLDINGS	1914 GRAND CAILLOU
30.218908	-91.066327	218	IBERVILLE PARISH	70721CSMRPLAHWY	COS-MAR CO	639		6325 LA HWY 75
29.56677	-90.38416	214	LAFOURCHE PARISH	7037WHLLBR1853H	HALLIBURTON LAROSE GRINDING PLANT	355	HALLIBURTON ENERGY SERVICES INC	1699 HIGHWAY 24
30.50986	-91.18465	212	EAST BATON ROUGE PARISH	70821STFFRAIRLI	SOLVAY USA INC	521	SOLVAY HOLDING INC	1275 AIRLINE HWY
30.099	-90.91782	211	ST JAMES PARISH	7008WVLRMR1455H	VALERO DONALDSONVILLE ASPHALT TERMINAL	537	VALERO ENERGY CORP	10455 HIGHWAY 18
29.6607	-91.1014	211	ST MARY PARISH	7034WMRTNP141FF	MARTIN OPERATING PTNR AMELIA OFFSHORE RD	347	MARTIN OPERATING PTNR	141 OFFSHORE
30.11794	-90.981085	209	ASCENSION PARISH	7072WLDCST345ER	OLDCASTLE LAWN & GARDEN	603	OLDCASTLE INC	3405 ERVIN S COOPER
30.232727	-93.2859	207	CALCASIEU PARISH	70669TXSNTCOLUM	TETRA CHEMICALS/LAKE CHARLES P LANT	337	TETRA TECHNOLOGIES INC	1100 PPG DR
29.662741	-91.100935	201	ST MARY PARISH	70340VNDLNUSHWY	AVONDALE INDUSTRIES INC OFFSHORE DIV	347	AVONDALE INDUSTRIES INC	US HWY 90 E
29.11497	-90.20672	200	LAFOURCHE PARISH	70357MRTNT365AJ	MARTIN TERMINAL SOUTH YARD	337	MARTIN HOLDINGS LLC	365 A J ESTAY RD
30.507912	-91.181783	200	EAST BATON ROUGE PARISH	7080WCSRVC131AI	ECO-SERVICES OPERATIONS	595	PQ GROUP HOLDINGS INC	1301 AIRLINE HWY
30.101713	-90.953829	195	ASCENSION PARISH	70346MPRMM39139	AMPRO FERTILIZER INC.	414	FIRST MISSISSIPPI CORP	39139 HWY. 18 W.
29.835924	-90.001314	192	PLAQUEMINES PARISH	70037PRDCT1402B	JOTUN PAINTS INC	349		9203 HWY 23
29.594427	-90.469043	191	LAFOURCHE PARISH	70374LCKPR157FR	LOCKPORT THERMOSETS	342		157 FRONT ST.
30.099972	-90.956889	191	ASCENSION PARISH	70346TRDCH39041	TERRA MISSISSIPPI NITROGEN INC	399	TERRA INDUSTRIES INC	39139 HWY 18 W
32.454692	-93.759369	190	CADDO PARISH	71108KSTMT1430W	KAST METALS CORP	534		1430 W 59TH ST
30.61325	-91.23333	189	EAST BATON ROUGE PARISH	70791GRNTCHWY61	BASF CORP	289	BASF CORP	111 W IRENE RD
29.688778	-91.093256	188	ASSUMPTION PARISH	70340BKRHGHWY66	NOV TUBOSCOPE AMELIA NORTH & SOUTH COATING & INSPECTION	288	NATIONAL OILWELL VARCO LP	2112 HIGHWAY 662 - 1844 HIGHWAY 662
29.688335	-91.18091	186	ST MARY PARISH	7038WMRTNN325YU	MARTIN ENERGY SERVICES-MORGAN CITY 31	344	MARTIN MIDSTREAM PTNRS LP	3205 YOUNGS RD
30.037596	-92.637763	186	VERMILION PARISH	7054WDCKXX2254S	193 DOCK	285	MARTIN MIDSTREAM PTNRS LP	2254 S TALENS LANDING RD
30.11837	-93.29295	186	CALCASIEU PARISH	70605LKCHR3943G	LAKE CHARLES CARBON CO	399	ALCOA CORP	4040 W TANK FARM RD
29.59408	-90.46846	185	LAFOURCHE PARISH	70374VLNTNRT2BO	VALENTINE SUGARS INC.	342		129 VALENTINE DR., BOX 625
29.1295	-90.21561	184	LAFOURCHE PARISH	70357CPRTL169TH	C-PORT LLC	330		106 9TH ST LOT 1
29.592236	-90.465048	184	LAFOURCHE PARISH	70374VLNTNHWY30	VALENTINE PAPER INC.	340		139 JOE BROWN RD
30.21807	-91.05467	183	ASCENSION PARISH	70734RHNPL10810	INNOPHOS INC	632	INNOPHOS INC	10810 LA-75
32.45469	-93.75943	180	CADDO PARISH	71108HCSTL1431W	HICA STEEL FOUNDRY & UPGRADE CO	534	HICA STEEL FNDY & UPGRADE CO	1431 W 59TH ST
30.125259	-90.912628	178	ASCENSION PARISH	70725DPNTB3460H	VEOLIA BURNSIDE PLANT	644	VEOLIA NA REGENERATION SERVICES LLC	3460 HWY 44
29.994105	-93.396277	176	CAMERON PARISH	*	*	320	FLUOR CORP	1450 BLACK LAKE RD
30.51379	-91.18062	175	EAST BATON ROUGE PARISH	70807PTRSN1100M	DRISCOLL MANAGEMENT LLC	416		1100 MENGEL RD
29.123879	-90.201477	173	LAFOURCHE PARISH	70357CPRT2181ST	C-PORT 2 LLC	340		180 1ST ST
29.12703	-90.21505	171	LAFOURCHE PARISH	70357BLLNG16NRM	BOLLINGER FOURCHON LLC	331	BOLLINGER SHIPYARDS LLC	106 NORMAN DOUCET DR
31.376178	-92.424724	170	RAPIDES PARISH	71360DSTRN529CE	DIS-TRAN OVERHEAD SOLUTIONS LLC	323		529 CENLA DR
29.14118	-90.21803	169	LAFOURCHE PARISH	7035WMRTNP1NRMA	MARTIN OPERATING PTNR - FOURCHON 17	289	MARTIN OPERATING PTNR LP	1 NORMAN DOUCET DR
29.688306	-91.165394	169	ST MARY PARISH	70380NWFFS6032R	NEW INDUSTRIES LLC	377		6032 RAILROAD AVE
32.55072	-93.66638	168	BOSSIER PARISH	71111LPPRT4819H	LIPPERT COMPONENTS INC. PLANT 15	270	LIPPERT COMPONENTS MANUFACTURING INC	4819 HAZEL JONES RD
30.05073	-90.53908	167	ST JOHN THE BAPTIST PARIS	70084BRLCHNORTH	BEROL NOBEL INC.	606	BEROL NOBEL CORP	N.W. 19TH ST.
30.107137	-93.292029	166	CALCASIEU PARISH	7060WLKCHR821HE	MARTIN OPERATING PTNR - LAKE CHARLES DOCK	425	MARTIN OPERATING PTNR LP	3700 HENRY PUGH BLVD
30.0009	-90.27704	164	JEFFERSON PARISH	70062SFTYK2423T	SAFETY-KLEEN SYSTEMS KENNER (KEN)	236	CLEAN HARBORS INC	2423 TYLER ST
30.08367	-90.91325	164	ST JAMES PARISH	70346GRCCHLAHIG	MOSAIC PHOSPHATES CO FAUSTINA PLANT	657	THE MOSAIC CO	9959 HWY LA 18
29.710874	-91.081074	164	ASSUMPTION PARISH	70381MRNCNSTATI	MCDERMOTT INC	282	MCDERMOTT INTERNATIONAL INC	2317 HWY 662 S
29.69098	-91.19631	164	ST MARY PARISH	7038WMRTNP1YUNG	MARTIN OPERATING PTNR - MORGAN CITY 33	382	MARTIN OPERATING PTNR LP	1000 YOUNGS RD
30.005251	-92.781367	162	CAMERON PARISH	70549STHRN149RI	SOUTHERN MANUFACTURING CO	355	SOUTHERN MANUFACTURING CO	149 RIVER RD
30.53649	-90.974838	158	LIVINGSTON PARISH	70706CBSRV6865M	CBI SERVICES INC.	483	CBI IND INC	6865 MAGNOLIA BEACH RD.
29.929575	-89.933467	157	ST BERNARD PARISH	70075CHMCT3100A	CHEMCAT CORP	197		3100A E ST BERNARD HWY
30.585781	-91.243652	156	EAST BATON ROUGE PARISH	70874SCHYLWESTE	EXIDE TECHNOLOGIES - BATON ROUGE RECYCLING CENTER	501	EXIDE TECHNOLOGIES	2400 BROOKLAWN DR
30.05392	-90.64396	154	ST JOHN THE BAPTIST PARIS	7007WPNKTR46HIG	MT AIRY TERMINAL LLC	638		4006 HIGHWAY 44
30.57836	-91.21532	153	EAST BATON ROUGE PARISH	70807GRWTM453SP	PPG BATON ROUGE	686	PPG INDUSTRIES INC	453 SPRINGFIELD RD
29.706249	-91.216039	150	ST MARY PARISH	70380CNRDN1501F	CONRAD SHIPYARD LLC (MAIN YARD)	301	CONRAD INDUSTRIES INC	1501 FRONT ST
30.279842	-91.904123	148	ST MARTIN PARISH	70517BRXBRPOBOX	LOUISIANA SUGARCANE COOP. BREAUX BRIDGE BRANCH	300		CORNER OF REES & REFINERY ST.
29.689691	-91.171277	147	ST MARY PARISH	70380DLTST62RAI	DELTA STEEL LP	384	RELIANCE STEEL & ALUMINUM	6020 RAILROAD AVE
30.270473	-89.763396	146	ST TAMMANY PARISH	70459SLDLLPOBOX	SLIDELL MARBLE CO.	366		1594 SHORTCUT HWY.
30.08013	-90.916	146	ST JAMES PARISH	70086CHVRNHWY18	AMERICAS STYRENICS LLC	383	AMERICAS STYRENICS LLC	9901 HWY 18
30.27053	-89.76285	144	ST TAMMANY PARISH	70458GLFST168DA	GULF STATE MARBLE INC	366		1680 DANRY ST
30.27183	-91.11675	144	IBERVILLE PARISH	70776NTRGY2605H	ENTERGY WILLOW GLEN PLANT	661	ENTERGY CORP	2605 HWY 75
32.48781	-92.14474	143	OUACHITA PARISH	71292STHRN67JNE	SOUTHERN GRAPHIC SYSTEMS INC	465	SGS INTERNATIONAL	607 JONESBORO RD
29.9307	-90.34736	142	ST CHARLES PARISH	70070CCDNT12501	OCCIDENTAL CHEMICAL CORP LULING	597	OCCIDENTAL CHEMICAL HOLDING CORP	12501 RIVER RD
30.12044	-93.40128	142	CALCASIEU PARISH	70665CHMCL7170J	CHEMICAL WASTE MANAGEMENT - LA KE CHARLES FACILITY	288	WASTE MANAGEMENT INC	7170 JOHN BRANNON RD
30.415278	-90.157604	140	ST TAMMANY PARISH	70447QTBLXHWY21	TRINITY MARINE PRODUCTS INC PLT 1038	347	TRINITY INDUSTRIES INC	150 HWY 21
29.96945	-90.29179	136	ST CHARLES PARISH	70087DLTPT10352	SAFETY-KLEEN SYSTEMS - ST ROSE	267	CLEAN HARBORS INC	10352 RIVER RD
29.59432	-90.66646	136	TERREBONNE PARISH	70363LFRGN3579I	LAFARGE HOUMA RMX 30453	344	LAFARGE N.A. INC	3579 INDUSTRIAL AVE A
29.922442	-90.058794	134	JEFFERSON PARISH	70053NWMLT80FIR	NEW MALTER INC	172		80 FIRST ST
30.23771	-93.25821	133	CALCASIEU PARISH	70669BLBNCI10WE	BIO-LAB INC	274	KIK INTERNATIONAL LLC	910 I 10 SERVICE RD
30.233499	-93.331595	132	CALCASIEU PARISH	70664PLNTM115PR	PLANT MAINTENANCE SERVICES	356		115 PRODUCTION DR
29.80209	-91.81128	131	IBERIA PARISH	70560MRTNNHWY83	CVD CERAMICS INC	600	HELLMA MATERIALS US	11911 ADVANCED MATERIALS RD
31.38031	-92.42749	129	RAPIDES PARISH	71361WLLMT4502I	WILLAMETTE VALLEY CO	388	WILLAMETTE VALLEY CO	4502 WILLAMETTE BLVD
30.39064	-91.228607	128	WEST BATON ROUGE PARISH	70719HRRYL5133S	HARRY L. LAWS & CO INC	455	HARRY L LAWS & CO INC	5133 S FLORENCE AVE
30.1338	-93.3206	128	CALCASIEU PARISH	70606CLCSRWESTE	CALCASIEU REFINING CO	368	TRANSWORLD OIL USA INC	4359 W TANK FARM RD
30.05261	-90.46986	126	ST JOHN THE BAPTIST PARIS	70068HNSNP211MC	FORTERRA PIPE & PRECAST - LAPLACE	286	FORTERRA INC	211 MCREINE RD
30.238889	-93.281944	126	CALCASIEU PARISH	70669RPRDC12TRU	AIR PRODUCTS & CHEMICALS INC	287	AIR PRODUCTS & CHEMICALS INC	102 TROUSDALE RD
29.91527	-90.14167	125	JEFFERSON PARISH	70094GLFST175AV	GULF STATES ASPHALT CO. INC.	179	GULF STATES ASPHALT CO INC	175 AVE. A
29.94845	-90.17307	124	JEFFERSON PARISH	70121BRTLT4955R	BARTLETT CHEMICALS INC	177		4955 RIVER RD
30.052454	-90.670183	124	ST JAMES PARISH	70052LRCHCPOBOX	LAROCHE INDUSTRIES INC. GRAMERCY FACILITY	607	LAROCHE INDUSTRIES INC	1134 JEFFERSON HWY.
29.94829	-90.14766	122	JEFFERSON PARISH	7009WNTRGY1617R	ENTERGY LOUISIANA LLC - NINEMILE POINT PLANT	192	ENTERGY CORP	1617 RIVER ROAD
30.698703	-91.269664	122	EAST FELICIANA PARISH	7074WZCHRY498HI	ZACHARY BATCH PLANT	534	DOLESE BROS. CO.	498 HIGHWAY 61
32.005405	-93.387829	122	RED RIVER PARISH	7101WDCRBN21RED	ADA CARBON SOLUTIONS (RED RIVER) LLC	627	ADA CARBON SOLUTIONS LLC	201 RED RIVER MINE RD
29.985278	-90.392778	121	ST CHARLES PARISH	70047TRNSM14902	VALERO REFINING - NEW ORLEANS LLC	559	VALERO ENERGY CORP	14902 RIVER RD
30.043142	-90.627809	121	ST JOHN THE BAPTIST PARIS	70051STCKH3606H	EVONIK CORP	625	EVONIK INDUSTRIES	3606 HWY 44
29.59695	-90.66407	121	TERREBONNE PARISH	7036WHMDCK314IN	MARTIN OPERATING PTNR - HOUMA DOCK	344	MARTIN OPERATING PTNR LP	314 INDUSTRIAL AVENUE C
30.378056	-89.741111	120	ST TAMMANY PARISH	70452CHMLNI59NO	POLYCHEMIE INC. PEARL RIVER PLANT	215	SNF HOLDING CO	65275 PUMP SLOUGH RD I-59 N EXIT 5A
29.91045	-90.086482	120	JEFFERSON PARISH	70059SGMCT3300R	SIGMA COATINGS	154	FINA OIL & CHEMICAL CO	3300 RIVER RD.
31.947107	-92.59098	118	WINN PARISH	71440MNVLLHWY34	WEST FRASER INC JOYCE MILL	432	WEST FRASER TIMBER CO LTD	6481 HWY 34 N
30.07357	-90.56453	117	ST JOHN THE BAPTIST PARIS	70084JNSCH520WE	DPC ENTERPRISES LP	221		620 W 10TH ST
29.93061	-90.34702	116	ST CHARLES PARISH	70070SLTNC12501	SOLUTIA INC LULING	597	SOLUTIA INC	12501 RIVER RD
32.11501	-92.68689	116	WINN PARISH	71422WLLMTHWY16	WEYERHAEUSER CO-DODSON DIV	249	WEYERHAEUSER CO	706 HWY 167 N
30.07155	-90.57216	115	ST JOHN THE BAPTIST PARIS	70084BTZLB500RO	CLARIANT CORP - RESERVE FACILITY	251	CLARIANT CORP	334 ROSENWALD ST
30.273379	-91.204316	115	IBERVILLE PARISH	7076WNGLLC25583	ANGELLE CONCRETE PORTABLE PLANT 2	261	ANGELLE CONCRETE GROUP LLC	25583 HIGHWAY 405
30.433715	-91.200216	113	WEST BATON ROUGE PARISH	70767CHMLG2161H	CHEM-LIG INTL. IND. INC.	580	CHEM-LIG INTL IND INC	2161 HWY. LA 1 S.
30.58348	-91.240545	113	EAST BATON ROUGE PARISH	70807GRTLK2200B	OXBOW CALCINING LLC	332	OXBOW CARBON & MINERALS HOLDINGS INC.	2200 BROOKLAWN DR
29.862595	-89.971049	112	PLAQUEMINES PARISH	70040MXMTLLAHWY	AMAX METALS RECOVERY INC.	196	PHELPS DODGE CORP	3607 ENGLISH TURN RD
29.729802	-90.596491	112	LAFOURCHE PARISH	70394RCLNDHWY31	RACELAND RAW SUGAR CORP	172	M A PATOUT & SON	LA HWY 3199 E
31.3973	-92.7189	112	RAPIDES PARISH	71447CLCCR275RO	BRAME ENERGY CENTER	1042	CLECO CORPORATE HOLDINGS LLC	275 RODEMACHER RD
29.91598	-90.14367	109	JEFFERSON PARISH	70094GLDBN10LOU	NEW NGC INC D/B/A NATIONAL GYPSUM CO	176	NEW NGC INC	10 LOUISIANA ST
29.964823	-90.26462	109	JEFFERSON PARISH	7009WDYNNB18RIV	DYNO NOBEL LOUISIANA AMMONIA LLC	185	DYNO NOBEL INC	10800 RIVER ROAD
30.835742	-89.848964	107	WASHINGTON PARISH	7042WMLSBG2151H	HOOD INDUSTRIES INC	410	HOOD COS INC	21501 HIGHWAY 21 NORTH
32.52386	-92.61455	107	LINCOLN PARISH	71270NRHMP600JO	FRANKE CONSUMER PRODUCTS INC	321	FRANKE CONSUMER PRODUCTS INC.	600 FRANKE DR
31.551667	-91.446944	106	CONCORDIA PARISH	71371LCNDSJUCTI	BASF CORP - VIDALIA WORKS	302	BASF CORP	109 HWY 131
31.401288	-92.712648	106	RAPIDES PARISH	71447BSCSC8835H	BOISE CASCADE WOOD PRODUCTS ALEXANDRIA EWP	217	BOISE CASCADE CO	8835 HWY 1 N
32.971109	-93.458679	106	WEBSTER PARISH	71075STFFRPOBOX	GEO SPECIALTY CHEMICALS	239	GEO SPECIALTY CHEMICALS	OLD MINDEN RD.
32.008655	-93.3359	105	RED RIVER PARISH	71019STRSM2415R	SUNBEAM HOUSEHOLD PRODUCTS	290	SUNBEAM CORP	2415 RED OAK RD.
29.94563	-90.23055	103	JEFFERSON PARISH	70094NWRLN8400R	NEW ORLEANS SHIPYARD	529	ARCHER DANIELS MIDLAND CO	8400 RIVER RD
29.99904	-90.42335	102	ST CHARLES PARISH	70079SHLLL265RI	SHELL NORCO CHEMICAL PLANT WEST SITE	554	SHELL OIL CO	16122 RIVER RD
31.196667	-92.422222	101	RAPIDES PARISH	71302LTTLC1717H	LOTT OIL CO ALEXANDRIA	192	LOTT OIL CO	1717 HWY 71 S
32.458753	-93.827108	101	CADDO PARISH	71109FRMST5301I	SOUTHERN FOODS GROUP, LLC D/B/A FOREMOST DAIRY	242	DEAN FOODS CO	5301 INTERSTATE AVE
29.904575	-90.103159	100	JEFFERSON PARISH	7007WMGRFN5RIVE	VERTEX REFINING LA LLC	194	VERTEX ENERGY INC	5000 RIVER RD
30.00052	-90.47687	100	ST CHARLES PARISH	70066NTRGY17705	WATERFORD 1-3 COMPLEX	703	ENTERGY CORP	17705 RIVER RD
29.967855	-92.085702	100	VERMILION PARISH	70510CSTLFHWY14	COASTAL CHEMICAL CO LLC	304	BRENNTAG N.A. INC	3520 VETERANS MEMORIAL BLVD
30.88356	-92.62112	99	ALLEN PARISH	71463KDLSB192PA	OAKDALE OSB PLANT	263	MARTCO LLC	192 PAWNEE RD
32.53671	-92.75703	99	LINCOLN PARISH	71275WLLMTLINCO	ROSEBURG - LOUISIANA PARTICLEBOARD	300	ROSEBURG FOREST PRODUCTS	486 DURAFLAKE RD
31.723944	-93.662	99	SABINE PARISH	71419KSTCH12HWY	MCFARLAND CASCADE HOLDINGS INC	458	STELLA-JONES US HOLDING CORP	10020 HWY 483
30.56512	-91.18178	98	EAST BATON ROUGE PARISH	70807BYCTN12710	STUPP COATINGS LLC	223	STUPP BROTHERS INC	12710 LEISURE RD
29.68576	-91.473179	98	ST MARY PARISH	70583CBTCRSTATE	CABOT CORP CANAL PLANT	485	CABOT CORP	272 CABOT LN HWY 317
31.381252	-92.427499	98	RAPIDES PARISH	71361CLCTC4507W	ECLECTIC PRODUCTS INC	368	WILLAMETTE VALLEY CO	4507 WILLAMETTE BLVD
30.2107	-92.39979	97	ACADIA PARISH	70526CPTLM1125C	CAPITOL MANUFACTURING	383	PHOENIX FORGE GROUP	1125 CAPITOL AVE
29.923235	-90.348628	96	ST CHARLES PARISH	7007WHXNLL12513	HEXION LULING FACILITY	198	HEXION HOLDINGS LLC	12513 QUEENIE RD.
30.237449	-92.635658	96	JEFFERSON DAVIS PARISH	7054WJNNNG177EV	JENNINGS BULK PLANT	203	MARTIN MIDSTREAM PTNRS LP	1707 EVANGELINE RD
31.565375	-93.491867	96	SABINE PARISH	71449LTTLC142TE	LOTT OIL CO	270	LOTT OIL CO	142 TEXAS AVE
32.54668	-92.387672	94	OUACHITA PARISH	71234CLGCL2247H	ECOLOGICAL TANKS INC	204		2247 HWY 151 N
32.569204	-92.923816	94	BIENVILLE PARISH	71001CNGRBHWY80	HOUSE OF RAEFORD FARMS PROCESSING PLANT-ARCADIA DIV	350	HOUSE OF RAEFORD	3867 2ND ST
30.149027	-93.343366	94	CALCASIEU PARISH	70665WSTLK1820P	WESTLAKE STYRENE LP MARINE TERMINAL FACILITY	210	WESTLAKE CHEMICAL CORP	1820 PAK TANK RD
32.216831	-93.705343	93	DE SOTO PARISH	7102WCHMPN567PA	NALCO COMPANY-FRIERSON	317	ECOLAB INC	567 PARK DR
30.29449	-89.78264	92	ST TAMMANY PARISH	70460LSTCL646CA	KIK (LOUSIANA) INC	346	KIK INTERNATIONAL INC	646 CARNATION ST
29.956523	-92.140528	92	VERMILION PARISH	70510GLFCS220JA	GULF COAST CHEMICAL LLC	352	GULF COAST COS INC	220 JACQULYN ST
30.14893	-93.34305	92	CALCASIEU PARISH	70663GLFCS1697P	PHILLIPS 66 CO GULF COAST LUBES PLANT	210	PHILLIPS 66	1697 PAKTANK RD
29.981281	-90.392747	91	ST CHARLES PARISH	7007WVLRPR1492R	VALERO PARTNERS LA LLC- TERMINAL	570	VALERO ENERGY CORP	14902 RIVER RD
30.50748	-91.18557	91	EAST BATON ROUGE PARISH	70805LRCHCAIRLI	UOP LLC BATON ROUGE PLANT	521	HONEYWELL INTERNATIONAL INC	1200 AIRLINE HWY
30.392395	-91.208218	91	EAST BATON ROUGE PARISH	70821TRNTY6012S	TRINITY MARINE BATON ROUGE	356	TRINITY INDS INC	6012 S. RIVER RD.
30.261511	-91.949125	90	ST MARTIN PARISH	70517CRGLLLAHWY	CARGILL INC  SALT DIV	224		1224-A SALT MINE HWY LA HWY 354
32.526687	-92.513623	90	LINCOLN PARISH	71227CNGRB100NO	HOUSE OF RAEFORD RAEFORD FARMS FEED MILL	274	HOUSE OF RAEFORD	100 N DEPOT ST
30.23993	-93.24962	90	CALCASIEU PARISH	70669MDRLL12MIL	M-I DRILLING FLUIDS CO. WESTLAKE GRINDING PLANT	275	DRESSER/HALLIBURTON CO	1/2 MILE S. OF I-10 W. BANK OF CALCASIEU RIVER
31.59272	-92.41314	89	GRANT PARISH	*	*	425	*	*
29.95505	-90.13787	88	JEFFERSON PARISH	70121CHMCN333RI	CHEMCENTRAL/NEW ORLEANS	156	CHEMCENTRAL COPORATION	333 RIVER RD
31.935048	-92.650298	88	WINN PARISH	71483LLBRWTHOMA	HIXSON LUMBER SALES OF LOUISIANA	252	HIXSON LUMBER SALES	207 THOMAS MILL RD
32.973607	-93.463679	88	WEBSTER PARISH	71075RZNCHHIGHW	ARIZONA CHEMICAL	258	INTERNATIONAL PAPER CO	102 ARIZONA DR.
29.92166	-90.41471	87	ST CHARLES PARISH	70039BRRRC1327E	BARRIERE CONSTRUCTION BOUTTE PLANT 625	213	BARRIERE CONSTRUCTION CO LLC	1327 ESPERANZA PLANTATION RD
32.45652	-93.7942	87	CADDO PARISH	71109PNNZL3450H	PENNZOIL-QUAKER STATE CO	400	PENNZOIL-QUAKER STATE CO	3450 HOLLYWOOD AVE
30.176902	-91.133449	86	IBERVILLE PARISH	70788CRTXSPOBOX	CORA TEXAS MANUFACTURING CO INC	343		32505 HWY 1
30.24192	-91.19942	86	IBERVILLE PARISH	70764BGTHRHWY1S	AIR LIQUIDE AMERICA  PLAQUEMINE ASU	308		57805 EVERGREEN RD
32.836248	-92.37931	86	UNION PARISH	71241CNGRBHWY15	FOSTER FARMS  FARMERVILLE PLANT	353	FOSTER FARMS	6648 HWY 15 N
30.19795	-91.01846	85	ASCENSION PARISH	7073WBKRHG928HI	BAKER HUGHES OILFIELD OPERATIONS	651	BAKER HUGHES A GE CO LLC	9208 HIGHWAY 75
30.16122	-91.9803	85	LAFAYETTE PARISH	70518DPSTH117BR	DEEP SOUTH CHEMICAL INC.	339	DEEP SOUTH CHEMICAL INC	117 BRUSH RD.
30.241889	-93.282167	85	CALCASIEU PARISH	7066WTDCLL28LDS	TDC LLC - WESTLAKE PLANT	306	GENESIS ENERGY LP	2800 OLD SPANISH TRL
30.07665	-89.85606	84	ORLEANS PARISH	70129TXTRN19401	TEXTRON MARINE SYS. SHIPYARD OPS.	418	TEXTRON INC	19401 CHEF MENTEUR HWY.
30.876983	-90.554942	84	TANGIPAHOA PARISH	70444GLFDRPOBOX	MID-AMERICA DAIRYMEN INC.	269	MID-AMERICA DAIRYMEN INC	10569 HWY. 440
30.23888	-91.11178	83	IBERVILLE PARISH	7077WLTVCR425HI	BRENNTAG SOUTHWEST INC	283	BRENNTAG N.A. INC	4205 HIGHWAY 75
30.31402	-91.86843	83	ST MARTIN PARISH	70517RYLFB1407A	LATHAM POOL PRODUCTS INC D/B/A VIKING POOLS-LA	504	LATHAM POOL PRODUCTS INC	1407 ANSE BRO US SARD HWY
30.56099	-90.34205	82	TANGIPAHOA PARISH	70446JCMBSRTE1B	JOE COOMBS CLASSICS INC. TAXIDERMY SUPPLY CO.	255		48555 HWY. 445
30.092861	-91.909381	82	ST MARTIN PARISH	7051WMMNTR1471L	M & M INTERNATIONAL LLC	491	M & M INTERNATIONAL LLC	1471 OLD SPANISH TRAIL HWY
29.972109	-92.145016	82	VERMILION PARISH	70511BRSSR713SO	ANTIFREEZE INC	313		702 STANSBURY LN
30.416861	-90.037575	80	ST TAMMANY PARISH	70420LFRGNHWY59	LAFARGE COVINGTON RMX	276	LAFARGE NA	68160 HIGHWAY 59
32.98135	-93.45876	80	WEBSTER PARISH	71075NTRNT2600S	GEORGIA-PACIFIC WOOD PRODUCTS SOUTH LLC.	1013	GEORGIA-PACIFIC LLC	2600 S ARKANSAS ST
31.687564	-92.140546	79	LA SALLE PARISH	71342BLDNWHWY8I	BELDEN WIRE & CABLE CO.	448	COOPER INDUSTRIES INC	HWY. 8 INDUSTRIAL PARK
30.222221	-93.271469	79	CALCASIEU PARISH	70602LNCRPI10WE	OLIN CORP. LAKE CHARLES PLANT	303	OLIN CORP	900 I-10 W.
31.550348	-93.468961	79	SABINE PARISH	71449CNGRB100MC	PILGRIM'S PRIDE CORP MANY FEED MILL	488	PILGRIM'S PRIDE CORP	100 MC DONALD RD
31.493645	-93.654037	79	SABINE PARISH	71449SBNMNINTER	SABINE MFG.	222		INTERSECTION OF HWY. 6 & 19
30.480556	-91.202778	78	WEST BATON ROUGE PARISH	70767NTRPR2220N	ENTERPRISE PRODUCTS OPERATING LLC	478	ENTERPRISE PRODUCTS OPERATING LLC	2220 N RIVER RD
30.158231	-91.810675	78	ST MARTIN PARISH	70582LSNSG6092R	LOUISIANA SUGARCANE COOP. ST. MARTINVILLE BRANCH	497		6092 RESWEBER HWY.
29.96562	-90.23202	77.5	JEFFERSON PARISH	7012WMRTNP1BFLR	MARTIN OPERATING PTNR RIVER RIDGE	136	MARTIN OPERATING PTNR	100 FLORIDA ST
30.389633	-91.070189	77	EAST BATON ROUGE PARISH	7080WPRTBL9999B	PORTABLE READY MIX #130	245	MARTIN MARIETTA MATERIALS INC	9999 B REIGER
32.52885	-92.60804	77	LINCOLN PARISH	71270WLLMTEASTM	WEYERHAEUSER CO.	329	WILLAMETTE INDS INC	2301 E. MCDONALD
31.802472	-93.093801	77	NATCHITOCHES PARISH	71457TRSJS234IN	WEYERHAEUSER NR CO NATCHITOCHES PLANT	391	WEYERHAEUSER CO	234 IND US TRIAL AVE
30.318528	-91.310109	76	IBERVILLE PARISH	70764SDBYCHWY11	US DOE BAYOU CHOCTAW SPR SITE	175		60825-B HWY 1148
31.805996	-93.088774	76	NATCHITOCHES PARISH	71457LLNCC100IN	ALLIANCE COMPRESSORS	300	EMERSON ELECTRIC CO	100 INDUSTRIAL DR
29.90331	-90.11589	75	JEFFERSON PARISH	70072CHMCM6025R	SUNBELT CHEMICALS INC.	173		6025 RIVER RD.
31.863193	-92.29435	75	LA SALLE PARISH	71480LSNPC165NX	GEORGIA-PACIFIC CORP. URANIA COMPLEX	259	GEORGIA-PACIFIC CORP	STATE HWY. 125 N.
32.53315	-93.75244	75	CADDO PARISH	71107HRCRS1011J	HARCROS CHEMICALS INC	396	HARCROS CHEMICALS INC	1011 JACK WELLS BLVD
30.5522	-90.4865	74	TANGIPAHOA PARISH	70451HNTFR48177	HUNT FOREST PRODUCTS INC	253		48177 HWY 51 N
30.649539	-91.284109	73	EAST BATON ROUGE PARISH	70791SPCLTWENDE	SPECIALTY MINERALS INC	471	MINERALS TECHNOLOGIES INC	W END OF MOUNT PLEASANT RD
30.16797	-91.98296	73	LAFAYETTE PARISH	*	*	327	BODYCOTE THERMAL PROCESSING INC	*
32.487823	-92.139654	73	OUACHITA PARISH	71294BNCRF425BA	BANCROFT BAG INC.	444	BANCROFT BAG INC	425 BANCROFT BLVD.
31.456465	-93.460904	73	SABINE PARISH	71429FLRNPHWY17	BOISE CASCADE WOOD PRODUCTS FLORIEN OPERATIONS	388	BOISE CASCADE CO	225 STUDEMAN ST
30.313897	-91.240605	72	IBERVILLE PARISH	7076WBLCBP21255	BLUE CUBE OPERATIONS LLC - PLAQUEMINE SITE	155	OLIN CORP	21255 HIGHWAY 1 S
31.573505	-92.726262	72	GRANT PARISH	7141WCLNHR3763H	CLEAN HARBORS COLFAX LLC	256	CLEAN HARBORS INC	3763 HIGHWAY 471
32.80155	-93.410743	72	WEBSTER PARISH	71018KRRMCLA7SO	CALUMET COTTON VALLEY REFINING LLC CALUMET COTTON VALLEY	304	CALUMET REFINING LLC	1756 OLD HWY 7
32.66763	-93.94864	72	CADDO PARISH	71060THNSC8469B	HANSON BRICK EAST, LLC - CADDO PLANT	458	LEHIGH HANSON	8469 BARNETTE RD
30.29175	-89.77909	71	ST TAMMANY PARISH	70459RCCYLSTRAW	BOC GASES	261	BOC GROUP INC	250 STRAWBERRY
32.51308	-92.776696	71	LINCOLN PARISH	71275BRNSHPOBOX	BARNES & BARNES TIE	194		5235 HWY 569
32.77086	-91.9044	70	MOREHOUSE PARISH	7122WTXBST611GU	TXI BASTROP READY MIX	487	MARTIN MARIETTA MATERIALS INC	611 GURDON AVE
30.194955	-92.599047	70	JEFFERSON DAVIS PARISH	7054WBPBFL1117C	BP BIOFUELS LOUISIANA LLC	257		CAMPBELL WELLS RD
31.726665	-93.104508	70	NATCHITOCHES PARISH	71457CNGRBHWY1B	PILGRIM'S PRIDE CORP NATCHITOCHES PROCESSING PLANT	280	JBS USA FOOD CO	7088 HWY S BY PASS
32.699712	-93.958452	70	CADDO PARISH	71060MRCNL11730	AMERICAN ELECTRIC POWER LIEBERMAN POWER PLANT	183	AMERICAN ELECTRIC POWER	11730 LOUISIANA HWY #538
30.235778	-91.096005	69	IBERVILLE PARISH	70776CMRCS4990B	MEXICHEM FLUOR INC	325		4990B ICI RD
30.008388	-91.110964	69	ASSUMPTION PARISH	70391DWCHMLOUIS	THE DOW CHEMICAL CO GRAND BAYOU OPERATIONS	127	THE DOW CHEMICAL CO	LOUISIANA HWY 70
30.147688	-93.335266	69	CALCASIEU PARISH	70665VNTRC1920P	RAIN CII CARBON LLC LAKE CHARLES CALCINING PLANT (LCCP)	348	RAIN CII CARBON LLC	1920 PAK TANK RD
32.793348	-92.807256	68	CLAIBORNE PARISH	71048CLBRNHWY23	ARCADIA REFINING CO.	320	ARCADIA REFINING & MARKETING CO LP	3 MILES E. OF LISBON ON HWY. 2
32.373184	-93.640754	68	CADDO PARISH	7111WPRTTP1429R	PRATT PAPER (LA) LLC	184	PRATT INDUSTRIES INC	10429 RICHARD PRATT DR
30.029033	-89.900517	67	ORLEANS PARISH	70129RPRDC14700	AIR PRODUCTS & CHEMICALS INC ( NEW ORLEANS LA FACILITY)	105	AIR PRODUCTS & CHEMICALS INC	14700 INTRACOASTAL DR
31.86341	-92.29625	67	LA SALLE PARISH	71480CVNHMMILLR	CAVENHAM FOREST INDUSTRIES INC	259		MILL RD
32.606666	-93.31512	67	WEBSTER PARISH	71055SPRTC1616S	SPORTCO OF MINDEN INC.	283		1616 SHREVEPORT RD., P.O. BOX 1156
32.541078	-93.695523	67	BOSSIER PARISH	7111WTXRDY351SH	TXI-READY MIX PLANT #25	177	MARTIN MARIETTA MATERIALS INC	3501 SHED RD
32.5396	-93.84449	67	CADDO PARISH	71107LNDLK5015N	LAND O'LAKES FARMLAND FEED	124	LAND O'LAKES INC	5015 N LAKE SHORE DR
30.02765	-89.90102	66	ORLEANS PARISH	70129LNSTR14800	LONE STAR INDUSTRIES INC	234	LONE STAR INDUSTRIES INC	14900 INTRACOASTAL DR.
30.49467	-91.181507	66	EAST BATON ROUGE PARISH	70805THYLPGULFS	ETHYL CORP. BATON ROUGE PLANT	166	ETHYL CORP	GULF STATES RD.
30.316389	-91.241389	66	IBERVILLE PARISH	70765NSXDX21255	INEOS OXIDE A DIV OF INEOS AMERICAS LLC	155	INEOS USA LLC	21255A HWY 1 S
32.52793	-92.5998	66	LINCOLN PARISH	71270STWWD3101M	STOWE WOODWARD	376	STOWE WOODWARD LLC	3101 MCDONALD AVE
30.233467	-93.263086	66	CALCASIEU PARISH	70602RCDNCI10WE	ARCADIAN FERTILIZER L.P.	293	ARCADIAN FERTILIZER LP	I-10 W.
32.4211	-93.7389	66	CADDO PARISH	71135FRYMS8700L	FRYMASTER	225	WELBILT INC	8700 LINE AVE
32.53388	-93.75311	66	CADDO PARISH	71107SHWSH1040J	SHAW SHREVEPORT	207	SHAW GROUP INC	1040 JACK WELLS BLVD
32.55201	-93.85135	66	CADDO PARISH	71107NTRNT1212T	INTERNATIONAL PAPER CO CONTAINER DIV	199	INTERNATIONAL PAPER CO	1212 TOLMARK RD
32.546541	-92.07747	65	OUACHITA PARISH	71203CHTFR2500S	OUACHITA FERTILIZER CO. MONROE PLANT	126	ABELL CORP	2500 STERLINGTON RD.
30.45073	-91.14254	64	EAST BATON ROUGE PARISH	70806BRDNN4743F	BORDEN INC. DAIRY DIV.	577	BORDEN INC	4743 FLORIDA BLVD.
29.969833	-92.147692	64	VERMILION PARISH	7051WDHNBR818SU	DUHON BROTHERS OIL CO INC	294		818 SOUTH HENRY STREET
32.49382	-92.19384	64	OUACHITA PARISH	7129WWSTMN169HA	WEST MONROE READY MIX	203	MARTIN MARIETTA MATERIALS INC	169 HAMMONS DR
29.86385	-89.907686	63	PLAQUEMINES PARISH	70040LVTNG900ST	ELEVATING BOATS INC	183		900 ST BERNARD PKWY
30.775463	-90.510371	63	TANGIPAHOA PARISH	7045WSMTTY63399	SMITTY'S SUPPLY INC	214		63399 HIGHWAY 51
31.05547	-92.07897	63	AVOYELLES PARISH	71350LDRWDHWY11	GREAT SOUTHERN WOOD - LA INC	233	GREAT SOUTHERN WOOD PRESERVING INC	334 ELDER WOOD RD
32.0306	-93.5692	63	DE SOTO PARISH	71052CLCCR963PO	DOLET HILLS POWER STATION	332	CLECO CORPORATE HOLDINGS LLC	963 POWER PLANT RD
32.44858	-93.76015	63	CADDO PARISH	71106PRNML223WE	LAND O'LAKES PURINA FEED LLC - SHREVEPORT	217	LAND O LAKES INC	223 W 63RD ST
32.43391	-93.77864	63	CADDO PARISH	71108WSTLN2740V	SAFETY-KLEEN SYSTEMS INC	691	CLEAN HARBORS INC	2760 VALLEY VIEW DR
29.94155	-90.18273	62	JEFFERSON PARISH	70123RLNSM5751R	ORLEANS MARBLE INC	287		5751 RIVER RD
30.070547	-90.682707	62	ST JAMES PARISH	70052LFRGN14HWY	LAFARGE GRAMERCY RMX	176	LAFARGE N.A. INC	104 HWY 3125
30.709033	-91.320677	62	WEST FELICIANA PARISH	70775JMSRVENDOF	HOOD CONTAINER OF LOUISIANA LLC - ST FRANCISVILLE MILL	305		2105 HWY 964
30.167804	-91.99844	62	LAFAYETTE PARISH	70508CHMLN103RO	CHEMLINK INC PETROLEUM DIV	101		107 ROW 2  CANEBRAKE INDUSTRIAL PARK
30.420969	-92.193232	62	ACADIA PARISH	70525CNLRFHWY17	CANAL REFINING CO.	309	ANCHOR GASOLINE CORP	1901 E. EBBEY ST. HWY. 178 N.
32.709694	-93.307138	62	WEBSTER PARISH	71055SSCTD11MIL	ASSOCIATED NATURAL GAS INC. MINDEN PLANT	258	ASSOCIATED NATURAL GAS INC	11 MILES N. ON U.S. HWY. 159
30.203024	-91.015172	61	ASCENSION PARISH	70734RBCNN9156H	RUBICON LLC	135		9156 HIGHWAY 75
32.54802	-92.61563	61	LINCOLN PARISH	7127WCSTLC17IND	COASTAL CHEMICAL CO LLC	263		1700 INDUSTRIAL DR
32.546411	-92.763639	61	LINCOLN PARISH	71275BLLGLHWY56	ARDAGH GLASS INC	189	ARDAGH HOLDINGS USA INC	4241 HWY 563
30.210259	-91.018844	60	ASCENSION PARISH	7073WMTHNX4171H	METHANEX USA SERVICES LLC	194		4171 HWY 73
32.908333	-92.252944	60	UNION PARISH	71260MRNPRHIGHW	MARION PRESSURE TREATING CO., INC.	142		HWY. 551
32.519823	-93.725725	60	BOSSIER PARISH	71111NRTHW430HA	NORTHWEST PIPE CO	369	NORTHWEST PIPE CO	430 HAMILTON RD
32.46928	-93.81012	60	CADDO PARISH	71109DLTDS4201P	BRENNTAG SOUTHWEST INC SHREVEPORT	205	BRENNTAG INC	4201 PRO ST
30.1832	-90.99716	59	ASCENSION PARISH	70734VNWTR34200	UNIVAR USA INC GEISMAR	443	UNIVAR USA INC	34200 DISTRIBUTION LN
29.981469	-91.765784	59	IBERIA PARISH	70560BJNCH3704O	BJ CHEMICAL SERVICES	194	BJ SERVICES CO USA	3704 E OLD SPANISH TRAIL
32.55899	-92.94141	59	BIENVILLE PARISH	71001HYNSNPOBOX	HAYNES INTERNATIONAL INC	294	HAYNES INTERNATIONAL INC	3786 2ND ST
31.719722	-93.075	59	NATCHITOCHES PARISH	7145WPLGRM8PILG	PILGRIM'S NATCHITOCHES FEED MILL	192	JBS USA FOOD CO	800 PILGRIM'S DR
32.59949	-93.30565	59	WEBSTER PARISH	71055KRCST1200D	SCAPA ROLLS	300	SCAPA ROLLS	1200 DAVENPORT DR.
31.6288	-93.6471	59	SABINE PARISH	71486WLLMTLAHWY	WEYERHAEUSER NR CO ZWOLLE DIV	335	WEYERHAEUSER CO	2792 OBRIE ST
32.52573	-93.75922	59	CADDO PARISH	71107LLYPP740NM	SHAW ALLOY PIPING PRODUCTS INC	359	CBI FABRICATION LLC	740 N MARKET ST
32.550278	-91.173889	58	EAST CARROLL PARISH	71276BRNSHPOBOX	BARNES HARDWOOD INC SONDHEIMER DIV	105		16998 HIGHWAY 65 S
29.98121	-91.76511	58	IBERIA PARISH	70560CHTFRHWY18	OUACHITA FERTILIZER CO. NEW IBERIA PLANT	175	ABELL CORP	3714 OLD SPANISH TRAIL E.
31.686111	-92.158056	58	LA SALLE PARISH	71342WBMCCHWY8W	WB MCCARTNEY OIL CO INC	160		21691 HWY 8
31.29417	-92.35111	58	RAPIDES PARISH	71361NTRNTWILLI	INTERNATIONAL PAPER CO PINEVILLE MILL	278	INTERNATIONAL PAPER CO	300 WILLIAMS LAKE RD
32.780384	-93.068043	58	CLAIBORNE PARISH	7104WBRRYP458HI	COVALENCE SPECIALTY COATINGS A SUBSIDIARY OF BERRY GLOBAL I	344	BERRY GLOBAL INC	4058 HIGHWAY 79
30.826157	-93.285261	58	BEAUREGARD PARISH	70634WSTVCPOBOX	INGEVITY SOUTH CAROLINA LLC	168	INGEVITY CORP	400 CROSBY RD
30.019501	-91.821452	57.5	IBERIA PARISH	70560BRSGRLAHWY	IBERIA SUGAR CO-OP INC	374		801 NORTH LANDRY DR
29.903827	-90.083214	57	JEFFERSON PARISH	70058VNDLN604DE	AVONDALE INDUSTRIES INC	94	AVONDALE INDUSTRIES INC	604 DESTREHAN AVE.
29.90717	-90.13095	57	JEFFERSON PARISH	70094HYDRL21KLE	HYDRIL WESTWEGO	237	TENARIS	201 KLEIN ST
30.0169	-90.40874	57	ST CHARLES PARISH	*	*	289	*	*
30.20404	-90.99189	57	ASCENSION PARISH	70734RPRDS36637	BASF NORTH GEISMAR SITE	225	BASF CORP	36637- B LA HWY 30
30.318804	-91.241425	57	IBERVILLE PARISH	7076WDDPSP21255	DDP SPECIALTY ELECTRONIC MATERIALS US INC - PLAQUEMINE MET	154	THE DOW CHEMICAL CO	21255 LA HIGHWAY 1 - BLOCK 45, BUILDING 4501
32.179893	-91.724998	57	FRANKLIN PARISH	71295MCRCHHWY15	MICRO CHEMICAL CO INC.	151		3393 FRONT ST
31.50157	-92.86179	57	NATCHITOCHES PARISH	71447MRTCP1695H	CHOPIN MILL	209	MARTCO LLC	1695 HWY 490
32.542778	-92.886667	57	BIENVILLE PARISH	71001CNGRBHWY8A	FOSTER FARMS ARCADIA FEEDMILL	306	FOSTER FARMS	7920 HWY 80 E
30.214192	-93.30859	57	CALCASIEU PARISH	7066WLCCLL22BAY	LACC LLC US/LOTTE CHEMICAL LOUISIANA LLC	285		2200 BAYOU D'INDE
32.34505	-93.97508	57	CADDO PARISH	71129RNLDF10818	ARNOLD FOREST PRODUCTS CORP	146		10818 PROVIDENCE RD
30.506944	-90.5075	56	TANGIPAHOA PARISH	70404SNDRSHWY19	SANDERSON FARMS INC	525	SANDERSON FARMS INC	HWY 190 W
30.199444	-91.013333	56	ASCENSION PARISH	70734LQDCRPOBOX	PRAXAIR INC	135	PRAXAIR INC	9154 HIGHWAY 75
30.206521	-91.017809	56	ASCENSION PARISH	70734BRDNC9288H	HEXION INC	153	HEXION HOLDINGS LLC	4338 HIGHWAY 73
30.468342	-91.179326	56	EAST BATON ROUGE PARISH	70802STHRN1145N	SOUTHERN IONICS INC.	183	SOUTHERN IONICS INC	1145 NEOSHO AVE.
30.44329	-91.22614	56	WEST BATON ROUGE PARISH	70767CSTRL1981S	BP LUBRICANTS USA INC	432	BP AMERICA INC	1981 S WESTPORT DR
30.650644	-91.281167	56	EAST BATON ROUGE PARISH	70791GRGPCZACHA	GEORGIA-PACIFIC CONSUMER OPERATIONS LLC	220	KOCH INDUSTRIES INC	1000 W MOUNT PLEASANT RD
32.785396	-92.386366	56	UNION PARISH	7124WRLDYN131WA	RELADYNE	225	RELADYNE LLC	1031 WARD CHAPEL RD
31.253803	-92.435692	56	RAPIDES PARISH	71302BRDNN3901S	HEXION INC - ALEXANDRIA PLANT	225	HEXION HOLDINGS LLC	3901 SUGAR HOUSE RD
32.03632	-92.649797	56	WINN PARISH	7142WJLDWN465TA	JELD-WEN	170	JELD-WEN INC	465 TANNEHILL RD
32.40121	-93.735758	56	CADDO PARISH	71136THBTS8800E	BOOTS CO USA INC	239	BOOTS CO	8800 ELLERBE RD
30.08783	-91.94	55	LAFAYETTE PARISH	70518VTCGR1249E	VETCO GRAY INC	283	VETCO INTERNATIONAL HOLDING (DELAWARE) INC	1249 EVANGELINE THRUWAY
32.49377	-92.08385	55	OUACHITA PARISH	71210CHTCC1300H	COCA-COLA BOTTLING CO OUACHITA	576	COCA-COLA ENTERPRISES INC	1300 MARTIN LUTHER KING BLVD
30.7844	-92.6769	55	ALLEN PARISH	71463KDLPLHWY16	BOISE CASCADE WOOD PRODUCTS-OAKDALE OPERATIONS	340	BOISE CASCADE CO	140 VAN PLY RD
32.531758	-93.759579	55	BOSSIER PARISH	71107JMSRV210KA	PRINTPACK INC.	243	PRINTPACK INC	210 KANSAS CITY AVE.
32.005573	-93.988596	55	DE SOTO PARISH	71049KPPRSHWY52	KOPPERS INC	190		HWY 5 22 MILES N OF LOGANSPORT LOUISIANA
30.559113	-91.176764	54	EAST BATON ROUGE PARISH	70821STPPCPOBOX	STUPP CORP	268	STUPP BROTHERS INC	12555 RONALDSON RD
32.51598	-92.28481	54	OUACHITA PARISH	71291PRGRS901IN	FLINT INK N.A. CORP.	152	FLINT INK CORP	901 INDUSTRIAL PKY.
32.039444	-92.655	54	WINN PARISH	71483CHMBNHIGHW	ARCLIN USA LLC	202	ARCLIN INC	344 TANNEHILL RD
31.905326	-93.173636	54	NATCHITOCHES PARISH	71411WLLMTHIGHW	INTERNATIONAL PAPER / RED RIVER MILL	367	INTERNATIONAL PAPER CO	4537 HWY 480
32.52453	-93.68443	54	BOSSIER PARISH	71112LTTLC3470I	LOTT OIL CO BOSSIER	371	LOTT OIL CO	3470 INDUSTRIAL DR
29.9007	-90.0821	53	JEFFERSON PARISH	70058BLLNG615DE	BOLLINGER QUICK REPAIR LLC	85	BOLLINGER SHIPYARDS LLC	615 DESTREHAN AVE
30.06132	-90.59353	53	ST JOHN THE BAPTIST PARIS	70051MRTHNHWY61	MARATHON PETROLEUM CO LP	116	MARATHON PETROLEUM CORP	4663 W AIRLINE HWY
30.325472	-91.002602	53	ASCENSION PARISH	70769SHWCN36445	SCI FABRICATION SHOP	169	SHAW GROUP INC	36445 OLD PERKINS ROAD
30.471715	-91.018219	53	EAST BATON ROUGE PARISH	70819CMCST1235C	CMC STEEL FABRICATORS INC DBA CMC CAPITOL STEEL	284	COMMERCIAL METALS CO	1235 CENTERPOINTE DR
32.760826	-91.8947	53	MOREHOUSE PARISH	71220NTRNT315AI	INTERNATIONAL PAPER CO. LIQUID PACKAGING DIV.	141	INTERNATIONAL PAPER CO	315 AIRPORT RD.
32.483198	-92.152243	53	OUACHITA PARISH	71292MNVLL1031J	GRAPHIC PACKAGING INTERNATIONAL LLC	358	GRAPHIC PACKAGING HOLDING CO	1000 JONESBORO RD
30.868833	-93.281944	53	BEAUREGARD PARISH	70634MPCTC1AMPA	AMPACET CORP	199	AMPACET CORP	125 AMPACET DR
30.00055	-90.39502	52	ST CHARLES PARISH	7007WPRXRSVALER	PRAXAIR ST CHARLES FACILITY	143	PRAXAIR INC	VALERO REFINERY POST 2 PROSPECT & 40TH AVE
30.0615	-90.6659	52	ST JAMES PARISH	70052KSRLMAIRLI	NORANDA ALUMINA	231	GRAMERCY HOLDINGS I LLC	1111 AIRLINE HWY
30.552014	-91.178517	52	EAST BATON ROUGE PARISH	70807XXNCH11675	EXXONMOBIL CHEMICAL - BATON ROUGE PLASTICS PLANT	311	EXXON MOBIL CORP	11675 SCOTLAND AVE
30.648546	-91.253872	52	EAST BATON ROUGE PARISH	7079WGRTST1955S	SOUTH ATLANTIC GALVANIZING	512		19550 SALVANT ROAD
30.7261	-91.3669	52	POINTE COUPEE PARISH	70760BGCJN9951C	BIG CAJUN 2	170	NRG ENERGY INC	10431 CAJUN 2 RD (HWY 981)
31.452976	-92.333209	52	RAPIDES PARISH	7136WLSNRMBLDG4	US ARMY NATIONAL GUARD-CAMP BEAUREGARD RANGE(S)	138	US DEPARTMENT OF DEFENSE	6060 W RANGE RD
32.52628	-92.743	52	LINCOLN PARISH	71245PBCNSLINCO	PABCO INSULATION	181	FIBREBOARD CORP	LINCOLN PARISH RD. 336
32.48597	-93.76186	52	CADDO PARISH	71103LPHMG1545W	ALPHA OMEGA LASER INC	230		1545 WILKINSON ST
32.5531	-93.85078	52	CADDO PARISH	71107CLLWY5677N	KEMIRA CHEMICALS INC SHREVEPORT PLANT	137	KEMIRA CHEMICALS INC	5677 N INDUSTRY RD
30.82814	-90.14807	51	WASHINGTON PARISH	70438DRYMN21155	DAIRY FARMERS OF AMERICA INC.	264	DAIRY FARMERS OF AMERICA INC	21155 HWY. 16
30.24515	-91.06321	51	IBERVILLE PARISH	70776HMSTD4250H	OHMSTEDE LTD	222	EMCOR GROUP INC	4250 HWY 30
32.403867	-91.169283	51	MADISON PARISH	71282MCKNNHWY80	MCKINNEY OIL CO OF TALLULAH INC	297		102 HWY 80 E
30.16911	-91.35068	51	IBERVILLE PARISH	70764SFTYK32655	CLEAN HARBORS PLAQUEMINE LLC	215	CLEAN HARBORS ENVIRONMENTAL SERVICES INC	32655 GRACIE LN
30.12835	-91.84611	51	ST MARTIN PARISH	70582STMRT2040T	ST. MARTIN OIL & GAS INC	276		2040 TERRACE HWY
32.44765	-93.8854	51	CADDO PARISH	71129GNBNC6901W	EXIDE TECHNOLOGIES	206	EXIDE TECHNOLOGIES	6901 WESTPORT AVE
32.86154	-93.9855	51	CADDO PARISH	71082BYLNR103CA	BAYLINER MARINE CORP	262	US MARINE	103 CAMP RD
30.03686	-90.46454	50	ST JOHN THE BAPTIST PARIS	70069BYSTLRIVER	BD LAPLACE LLC	316	BAYOU STEEL BD HOLDINGS LLC	138 HWY 3217
30.493536	-91.187226	50	EAST BATON ROUGE PARISH	7080WRPRDC2GULF	AIR PRODUCTS-BATON ROUGE SMR	223	AIR PRODUCTS & CHEMICALS INC	2 GULF STATES UTILITY RD
30.44275	-91.21878	50	WEST BATON ROUGE PARISH	70767RGSSP175CI	AIRGAS SPECIALITY GASES PORT ALLEN	269	AIRGAS SPECIALITY GASES	1075 CINCLARE DR
32.458611	-91.574443	50	RICHLAND PARISH	7123WDLHCN77HWY	CONAGRA FOODS - LAMB WESTON DELHI PLANT	173	CONAGRA FOODS INC	77 HIGHWAY 609
30.526504	-91.748383	50	ST LANDRY PARISH	70750HLLPTHWY10	ALON REFINING KROTZ SPRINGS INC	165	ALON USA ENERGY INC	HWY 105 S
30.24803	-92.06042	50	LAFAYETTE PARISH	7058WNVMSS311DI	NOV RIG SYSTEMS LAFAYETTE	246	NATIONAL OILWELL VARCO LP	311 DIESEL DR
32.549912	-92.077017	50	OUACHITA PARISH	71211DTTCPHWY16	DITTCO PRODUCTS INC	237		HWY 165 NORTH
30.2331	-93.16344	50	CALCASIEU PARISH	7061WMRTNP37BUN	MARTIN OPERATING PTNR-LAKE CHARLES	273	MARTIN MIDSTREAM PTNRS LP	307 BUNKER RD
31.41374	-93.45112	50	SABINE PARISH	71429GNDYT39228	QUALITY MILL OF LOUISIANA	183		39228 HWY 171
30.139164	-93.526936	50	CALCASIEU PARISH	70664PRXRN4451H	PRAXAIR INC SULPHUR 676	226	PRAXAIR INC	4451 HIGHWAY 108 W
32.35715	-93.63602	50	CADDO PARISH	71135LNCRPHIGHW	CHEMTRADE REFINERY SERVICES INC	289	CHEMTRADE LOGISTICS INC	10889 HIGHWAY 1
32.705267	-93.73828	50	BOSSIER PARISH	71006BNTNCHWY3N	BENTON CREOSOTING WORKS	217	KENNEDY SAW MILLS INC	6695 HWY 3
29.80825	-90.01	49	PLAQUEMINES PARISH	70037CHVRNHIGHW	CHEVRON ORONITE CO LLC	192	CHEVRON CORP	10285 HWY 23 S
30.06545	-90.56429	49	ST JOHN THE BAPTIST PARIS	70084DLTBV383W1	PEPSIAMERICAS	155	PEPSIAMERICAS	383 W. 10TH ST.
30.31642	-91.2239	49	IBERVILLE PARISH	70764BFGDRRT988	POLYONE CORP	586	POLYONE CORP	21120 WARREN ST
30.59862	-91.389578	49	POINTE COUPEE PARISH	70752LMPLNRTE1B	ALMA PLANTATION LTD	166		.5 MILES S OF LA STATE HWY 416
30.534915	-91.418809	49	POINTE COUPEE PARISH	70729BGRVR12652	ARCOSA LW BR LLC GRAVELITE	507	ARCOSA INC	12652 AIRLINE HWY
32.51732	-92.09219	49	OUACHITA PARISH	71203STRNC2725D	STERN CHEMTECH CORP.	400		2725 DESIARD ST.
31.31959	-92.42429	49	RAPIDES PARISH	71360DRWDTWADLE	MCFARLAND CASCADE HOLDINGS INC	159	STELLA-JONES US HOLDING CORP	74 WADLEY ST
32.34309	-93.61077	49	CADDO PARISH	7111WBNTLR1BENT	BENTELER STEEL/TUBE MANUFACTURING CORP	261		1 BENTELER DR.
32.77107	-93.915903	49	CADDO PARISH	71004DGSLN7558B	IDA GASOLINE CO INC	177		7558 BELCHER-OIL CITY RD
31.31956	-92.42424	48.5	RAPIDES PARISH	71361BKRMN75WAD	BAKER MANUFACTURING CO INC	159		75 WADLEY ST
29.87917	-90.11418	48	JEFFERSON PARISH	70072LFRGW195AM	LAFARGE WEST BANK RM PLANT	67	LAFARGE NORTH AMERICA INC	1950 AMES BLVD
30.782314	-90.510464	48	TANGIPAHOA PARISH	70456PRNMLHWY51	LAND O'LAKES PURINA FEED LLC - ARCOLA	304	LAND O LAKES INC	64080 HIGHWAY 51
30.4943	-91.21708	48	WEST BATON ROUGE PARISH	7076WCRTRN1699C	SHELL CATALYST & TECHNOLOGIES	242	SHELL PETROLEUM INC	1699 CATALYST DR.
30.340277	-91.259968	48	WEST BATON ROUGE PARISH	70710CCDNTHWY1E	BORDEN CHEMICALS & PLASTICS OPERATING LP	212		8600 HWY 1 S
31.559639	-92.395988	48	GRANT PARISH	71467FRMLNABEHA	VANGUARD SYNFUELS LLC	184	ALLEGRO BIODIESEL	737 ABE HALL RD
32.276643	-92.727371	48	JACKSON PARISH	71247STNHDMILLS	WESTROCK CP LLC	154	WESTROCK CO	100 MILL ST
30.242155	-93.274386	48	CALCASIEU PARISH	70669CNCLKOLDSP	PHILLIPS 66 LAKE CHARLES REFINERY	252	PHILLIPS 66 CO	2200 OLD SPANISH TRAIL
30.241902	-93.274446	48	CALCASIEU PARISH	70669VSTCHOLDSP	SASOL CHEMICALS (USA) LLC-LAKE CHARLES CHEMICAL COMPLEX	276	SASOL (USA) CORP	2201 OLD SPANISH TRAIL
32.612306	-93.289311	48	WEBSTER PARISH	71055BRDNN110SI	BORDEN INC. DAIRY DIV.	344	BORDEN INC	110 SIBLEY RD.
30.48142	-93.32202	48	BEAUREGARD PARISH	70633TMPLSHWY12	GEORGIA-PACIFIC SOUTHWEST LOUISIANA LUMBER OPERATION	149	KOCH INDUSTRIES INC	3442 HWY 12 E
32.44249	-93.90969	48	CADDO PARISH	71129NDSTR7268W	INDUSTRIAL OILS UNLIMITED LLC	297		7268 W 70TH ST
29.932504	-90.235561	47	JEFFERSON PARISH	70094VNDLN536MO	AVONDALE INDUSTRIES INC SERVICE FOUNDRY	125	AVONDALE INDUSTRIES INC	536 MODERN FARMS RD.
29.97371	-90.45892	47	ST CHARLES PARISH	*	*	95	OCCIDENTAL CHEMICAL HOLDING CORP	266 HWY 3142
30.47154	-91.09203	47	EAST BATON ROUGE PARISH	7081WSTHCH886SU	SOUTH CHOCTAW BATCH PLANT	381	DOLESE BROS CO	8806 S CHOCTAW DR
30.266667	-91.1775	47	IBERVILLE PARISH	7076WSTYLS2627H	SE TYLOSE LOUISIANA LLC	221	SE TYLOSE USA INC	26270 HIGHWAY 405
32.57475	-92.60582	47	LINCOLN PARISH	7127WTXRST14FRA	TXI RUSTON READY MIX	242	MARTIN MARIETTA MATERIALS INC	1400 FRAZIER RD
30.023946	-89.902913	46	JEFFERSON PARISH	70129LFRGH15INT	LAFARGE HAGAN PLANT	234	LAFARGE NORTH AMERICA	15000 INTRACOASTAL DR
29.97406	-90.458792	46	ST CHARLES PARISH	70057WTCCRRIVER	GALATA CHEMICALS LLC - GALATA TAFT FACILITY	91		471 HWY 3142
30.119088	-90.869264	46	ST JAMES PARISH	70723RPRDCHIGHW	AIR PRODUCTS & CHEMICALS INC	164	AIR PRODUCTS & CHEMICALS INC	12465 HWY 70 E
30.298477	-90.964963	46	EAST BATON ROUGE PARISH	7076WPRRVL38311	PRAIRIEVILLE BATCH PLANT	150	DOLESE BROS CO	38311 HWY 929
30.237222	-91.098889	46	IBERVILLE PARISH	70776CMRCSRIVER	ZENECA AG PRODS. INC.	198	ZENECA AG PRODS INC	4990 A ICI RD.
30.4696	-91.17601	46	EAST BATON ROUGE PARISH	7080WCHCTW1335C	CHOCTAW BATCH PLANT	183	DOLESE BROS CO	1335 CHOCTAW DR
32.7917	-91.91138	46	MOREHOUSE PARISH	71220STFFR1502N	GEO SPECIALTY CHEMICALS INC	253		1502 N WASHINGTON
30.1673	-91.98709	46	LAFAYETTE PARISH	70508CTLYS100AM	CATALYST RECOVERY OF LOUISIANA LLC	144	THE ALUCHEM GROUP	100 AMERICAN BLVD
32.50345	-92.12578	46	OUACHITA PARISH	71291YZVLL520TR	YAZOO VALLEY OIL MILL INC.	354		520 TRENTON
31.415772	-92.477245	46	RAPIDES PARISH	71309DRSSRHWY32	DRESSER INC	131	GENERAL ELECTRIC CO INC	8011 SHREVEPORT HWY
32.540274	-92.873435	46	LINCOLN PARISH	71275WLLMT130GI	WEYERHAEUSER NR - ARCADIA OSB	146	WEYERHAEUSER CO	130 GIRL SCOUT RD
31.03078	-93.20784	46	VERNON PARISH	*	*	134	US DEPARTMENT OF DEFENSE	6661 WARRIOR TRAIL BLDG 350 DEPARTMENT OF PUBLIC WORKS
32.54993	-93.67489	46	BOSSIER PARISH	71111SKYLN1650S	SKYLINE HOMES	194	SKYLINE CORP	1650 SWAN LAKE RD.
32.420988	-93.754068	46	CADDO PARISH	7110WTXSHR11BRA	TXI SHREVEPORT READY MIX	442	MARTIN MARIETTA MATERIALS INC	101 BRASWELL RD
29.27265	-89.35143	45	PLAQUEMINES PARISH	70091MDSTR781JU	MARTIN OPERATING PTNR - VENICE	348	MARTIN OPERATING PTNR LP	199 CORPS RD
30.07019	-90.57841	45	ST JOHN THE BAPTIST PARIS	70084MNTCHNW19T	ALPHACHEM INC.	217	ALPHACHEM INC	N.W. 19TH ST.
29.862648	-90.845431	45	LAFOURCHE PARISH	70302CLDWLPOBOX	CALDWELL SUGARS COOPERATIVE INC	86		HWY 304
30.225784	-91.053154	45	ASCENSION PARISH	70734RCDNCHIGHW	PCS NITROGEN FERTILIZER LP	97	POTASH HOLDING CO INC	HWY 3115 & HWY 30
30.655198	-91.269904	45	EAST BATON ROUGE PARISH	7079WPRTHD716PR	PORT HUDSON TERMINAL	172	GENESIS ENERGY L.P.	716 PORT HUDSON CEMETARY RD
29.892704	-91.616658	45	ST MARY PARISH	70544STMRYPOBOX	ST. MARY SUGAR CO-OP. INC.	348		20056 LA HWY. 182
32.50617	-92.08577	45	OUACHITA PARISH	71201STLFB2101B	STEEL FABRICATORS OF MONROE LLC	365		2101 BOOTH ST
30.539561	-92.089407	45	ST LANDRY PARISH	70570LNFDS731NR	VENTURA FOODS LLC LOU ANA DIV	85	VENTURA FOODS LLC	715 N RAILROAD AVE
30.321512	-92.14108	45	ST LANDRY PARISH	70525BLNTR124HW	ABL INDUSTRIES LLC	122		1024 HIGHWAY 343
32.50216	-92.17317	45	OUACHITA PARISH	7129WGRPHC24EXC	GRAPHIC PACKAGING INTERNATIONAL INC	121	GRAPHIC PACKAGING HOLDING CO	204 EXCHANGE ST
30.809856	-92.671559	45	ALLEN PARISH	71463RCHHLHIGHW	ARIZONA CHEMICAL CO	248	INTERNATIONAL PAPER CO	164 ARIZONA CHEMICAL RD.
31.12957	-93.26845	45	VERNON PARISH	71446LTTLC300CO	LOTT OIL CO LEESVILLE	152	LOTT OIL CO	300 CONCORD AVE
32.954167	-93.457222	45	WEBSTER PARISH	71021TRNC0ONEIN	TRANE-SPRINGHILL	129	INGERSOLL-RAND CO	1 INDUCTO WAY
32.49998	-93.73566	45	CADDO PARISH	71101CCCLB305ST	COCA-COLA BOTTLING CO OF SHREVEPORT	275	COCA-COLA BOTTLING CO	305 STONER AVE
32.45419	-93.77696	45	CADDO PARISH	71108MRPHY5805C	MURPHY BONDED WAREHOUSE	236		5805 COURTESY LN
32.012276	-93.982879	45	DE SOTO PARISH	71049LSNPCHWY5N	GEORGIA-PACIFIC LOGANSPORT PLYWOOD	224	GEORGIA-PACIFIC LLC	16906 HWY 5
29.2709	-89.352916	44	PLAQUEMINES PARISH	7009WMRTNP485JU	MARTIN OPERATING PTNR-VENICE JUMP BASIN RD	353	MARTIN MIDSTREAM PTNRS LP	485 JUMP BASIN RD
30.310488	-89.814175	44	ST TAMMANY PARISH	7046WLSNRM34845	US ARMY NATIONAL GUARD - CAMP VILLERE RANGE(S)	190	US DEPARTMENT OF DEFENSE	34845 GRANTHAM COLLEGE DR
29.68	-89.980833	44	PLAQUEMINES PARISH	70037LLNCRHIGHW	PHILLIPS 66  - ALLIANCE REFINERY	103	PHILLIPS 66	15551 HIGHWAY 23
32.20146	-91.72555	44	FRANKLIN PARISH	71295MSTRCINDUS	MASTERCRAFTERS CORP.	93	GENMAR IND INC	3200 INDUSTRIAL DR.
32.810255	-91.898822	44	MOREHOUSE PARISH	7122WPRTBL1611L	PORTABLE READY MIX #136	141	MARTIN MARIETTA MATERIALS INC	10611 LA HWY 425
30.7492	-92.2532	44	EVANGELINE PARISH	70586CBTCR412MI	CABOT CORP VILLE PLATTE PLANT	102	CABOT CORP	2066 CABOT RD
30.23515	-92.2575	44	ACADIA PARISH	70578NRTCN992EA	ENERTEC INC	189		992 E TEXAS AVE
31.36786	-92.4099	44	RAPIDES PARISH	71360THPRC3701M	PROCTER & GAMBLE MANUFACTURING CO ALEXANDRIA PLANT	228	THE PROCTER & GAMBLE CO	3701 MONROE HWY
31.345298	-92.525109	44	RAPIDES PARISH	7130WNNTNK6325H	UNION TANK CAR - ALEXANDRIA MANUFACTURING FACILITY	391	BERKSHIRE HATHAWAY INC	6325 HIGHWAY 1 NORTH
32.545582	-93.138384	44	BIENVILLE PARISH	71080WLLMTHWY80	WILLAMETTE INDUSTRIES INC. TAYLOR DIV.	122	WILLAMETTE INDS INC	U.S. HWY. 80 W.
32.978033	-93.143615	44	CLAIBORNE PARISH	71038DMNTDHIGHW	ANSELL EDMONT INDL.	102	PACIFIC DUNLOP HOLDINGS	10495 HWY. 79
30.192428	-93.304044	44	CALCASIEU PARISH	70663NLBRDBAYOU	HALLIBURTON LAKE CHARLES GRINDING PLANT	296	HALLIBURTON ENERGY SERVICES INC	3500 BAYOU DINDE RD
30.8627	-93.3751	44	BEAUREGARD PARISH	70634BSSTHUSHIG	PACKAGING CORP OF AMERICA - DERIDDER MILL	249	PACKAGING CORP OF AMERICA	4200 US HWY 190 W
32.5289	-93.76659	44	CADDO PARISH	71107GSRFN620AE	CERTAINTEED CORP	94	SAINT-GOBAIN CORP	620 AERO DR
30.020417	-89.900951	43	ORLEANS PARISH	70129RCNDS15200	BOC GASES	101	BOC GROUP INC	15200 INTRACOASTAL DR.
29.946787	-90.001024	43	ST BERNARD PARISH	70032MSTRS7417N	TATE & LYLE NORTH AMERICAN SUGARS INC.	211	TATE & LYLE PLC	7417 N. PETERS ST.
30.308378	-91.235614	43	IBERVILLE PARISH	7076WDLSBR218WA	DOW BATCH PLANT	581	DOLESE BROS CO	21800 WARREN ST
30.320903	-91.239015	43	IBERVILLE PARISH	70765THDWCHIGHW	THE DOW CHEMICAL CO - LOUISIANA OPERATIONS	170	THE DOW CHEMICAL CO	21255 LA HWY 1 S
30.324555	-91.25216	43	WEST BATON ROUGE PARISH	70710RPRDC9555H	AIR PRODUCTS & CHEMICALS INC.  PLAQUEMINE LA FAC.	138	AIR PRODUCTS & CHEMICALS INC	9555 HWY. 1 S.
30.2754	-92.036352	43	LAFAYETTE PARISH	70507LCNTRPONTD	BALMAR LLC	294		616 W PONT DES MOUTON RD
32.47445	-92.10396	43	OUACHITA PARISH	71210KTCHN1MISS	KITCHENS BROTHERS MANUFACTURING CO	98	KITCHENS BROTHERS MANUFACTURING CO	1000 MISSISSIPPI ST
31.872086	-92.283532	43	LA SALLE PARISH	7148WLSLLB4915H	LASALLE BIOENERGY LLC	125	DRAX BIOMASS INC.	4915 HIGHWAY 125
32.53654	-92.813211	43	LINCOLN PARISH	71275MDSTTLINCO	MID-STATES WOOD PRESERVERS LLC	160		147 SHELBY RD
32.60307	-93.30606	43	WEBSTER PARISH	71055NLNDC1000E	INLAND PAPERBOARD & PACKAGING	108	INLAND PAPERBOARD & PACKAGING INC	1000 ERWIN THOMPSON DR.
32.58909	-93.51512	43	BOSSIER PARISH	71067CLMTRHC62B	CALUMET PRINCETON REFINING LLC	124	CALUMET REFINING LLC	10234 HWY 157
32.52763	-93.72291	43	BOSSIER PARISH	71111SSCTD2041E	ASSOCIATED PRINTING	162		2041 E TEXAS ST
32.824665	-93.975708	43	CADDO PARISH	71082SPRRTHIGHW	SUPERIOR TIE & TIMBER	152	TRANS-SERVE INC	14800 HWY 1
30.812087	-89.859803	42	WASHINGTON PARISH	70427LSNFB511IN	LOUISIANA FIBERGLASS L.L.C.	287		511 INDUSTRIAL PKY. DR.
29.94111	-90.39194	42	ST CHARLES PARISH	70057LFRGN4ESPA	LAFARGE LULING RMX	226	LAFARGE NORTH AMERICA	400 ESPERANZA PLANTATION
30.795088	-90.651861	42	ST HELENA PARISH	70441CLLLSHWY43	AMERCHOL GREENSBURG	139	DOW CHEMICAL CO	13875 HWY 43
29.676965	-90.813252	42	TERREBONNE PARISH	7039WHNTNG1717H	HUNTING ENERGY SERVICES INC	135	HUNTING ENERGY SERVICES INC	1717 HWY 311 - SCHRIEVER FACILITY
30.487046	-90.939924	42	LIVINGSTON PARISH	70726STJRD100HA	EAST JORDAN IRON WORKS INC	341	EAST JORDAN IRON WORKS INC	100 HATCHELL LN
30.323693	-91.253243	42	IBERVILLE PARISH	7076WDXCPL21255	DEXCO POLYMERS LP	144		21255 LA HWY 1
30.072567	-91.940344	42	IBERIA PARISH	70518HNTNG3817M	HUNTING ENERGY SERVICES	191	HUNTING ENERGY SERVICES INC	3817 MELANCON RD
30.15505	-91.95972	42	LAFAYETTE PARISH	70518CHMCL102AB	MARIAH CORP	197		102-A BURGESS DR
30.16479	-91.97094	42	LAFAYETTE PARISH	70518DPSTH114CA	BROUSSARD BULK PLANT	323	MARTIN OPERATING PTNR LP	114 CASON RD
30.784107	-92.034661	42	ST LANDRY PARISH	71347MRTCPUSHWY	MARTCO. PARTNERSHIP	104	ROY O MARTIN LUMBER CO	U.S. HWY. 71 N.
32.50588	-92.05112	42	OUACHITA PARISH	7120WTXMNR4919C	TXI-MONROE OPERATIONS	272	MARTIN MARIETTA MATERIALS INC	4919 CONSTRUCTION AVE
32.50471	-92.08604	42	OUACHITA PARISH	71201CNTRL2300B	CENTRAL OIL & SUPPLY-MONROE BULK FACILITY	376		2300 BOOTH ST
31.679182	-92.153766	42	LA SALLE PARISH	7134WJNRDY21525	JENA READY MIX	108	MARTIN MARIETTA MATERIALS INC	21525 HIGHWAY 8 W
32.54094	-92.761748	42	LINCOLN PARISH	71275WLLMT252DU	WEYERHAEUSER NR CO	145		252 DURAFLAKE RD
30.23019	-93.13412	42	CALCASIEU PARISH	70602NDSTR5716E	INDUSTRIAL PIPE & PLASTICS INC.	339		5716 E. BROAD ST.
30.232861	-93.271722	42	CALCASIEU PARISH	70669LNCRP960I1	ARCH CHEMICALS INC	296	LONZA INC	960 I 10 SERVICE RD
32.028162	-93.71365	42	DE SOTO PARISH	71052LTTLC711JE	LOTT OIL CO MANSFIELD	225	LOTT OIL CO	711 JENKINS
30.250833	-91.092278	41	IBERVILLE PARISH	70776RPRDCHIGHW	TAMINCO US LLC	206	EASTMAN CHEMICAL CO	3790 LA HWY 30
30.474444	-91.183056	41	EAST BATON ROUGE PARISH	70805LLDSGCORNE	HONEYWELL INTERNATIONAL INC-BATON ROUGE PLANT	225	HONEYWELL INTERNATIONAL INC	CORNER OF LUPINE & ONTARIO STR EETS
30.33831	-91.253113	41	WEST BATON ROUGE PARISH	70710CPLYMLOUIS	DSM COPOLYMER	164	DSM FINANCE	9263 HWY 1 S
30.018686	-91.7645	41	IBERIA PARISH	70560CJNSGPOBOX	CAJUN SUGAR CO-OP INC	433		608 NORTHSIDE RD
30.094015	-91.940516	41	LAFAYETTE PARISH	70518HLLBR1187S	HALLIBURTON ENERGY SERVICES-GCMS	161	HALLIBURTON CO	1187 EVANGELINE THRUWAY
30.274481	-92.036999	41	LAFAYETTE PARISH	7050WHLLBR7WPNT	HALLIBURTON LAFAYETTE MANUFACTURING	294	HALLIBURTON CO	700 W PONT DES MOUTON RD
32.487014	-92.15356	41	OUACHITA PARISH	71291MNV701000J	RIVERWOOD INTERNATIONAL CORP	207	RIC HOLDING INC	1070 JONESBORO RD
32.50123	-92.16567	41	OUACHITA PARISH	71292PPGNK403DO	PPG INK PRODUCTS	134	PPG INDUSTRIES INC	403 DOWNING PINES
30.108168	-92.211944	41	VERMILION PARISH	7055WMLTCH13858	MULTI-CHEM GROUP MAURICE LA FACILITY	133	HALLIBURTON ENERGY SERVICES INC	13858 LA HWY 92
31.465734	-92.441527	41	GRANT PARISH	7146WFDRLC1AIRB	FEDERAL CORRECTIONAL COMPLEX  POLLOCK	163	US DEPARTMENT OF JUSTICE	1000 AIRBASE RD
32.921667	-92.6425	41	UNION PARISH	71256WLLMTHIGHW	WEYERHAEUSER LILLIE DIV.	160	WEYERHAEUSER CO	LA HWY. 15
30.834026	-93.279846	41	BEAUREGARD PARISH	70634NTRNT300PO	INTERNATIONAL PAPER CO. DERIDDER TREATED WOOD PRODS.	110	INTERNATIONAL PAPER CO	235 POST PLANT RD.
32.470169	-93.792975	41	CADDO PARISH	71109TLSPR3333M	CALUMET SHREVEPORT REFINING LLC	78	CALUMET REFINING LLC	3333 MIDWAY ST
30.026268	-89.917966	40	ORLEANS PARISH	70129GLFWR18901	GULF WIRE CORP.	77	NICHOLS WIRE INC	13901 OLD GENTILLY RD.
29.99806	-90.4	40	ST CHARLES PARISH	70079CYPRS16122	SHAC CATALYST PLANT	139	W R GRACE & CO	16122 RIVER RD
30.01418	-90.40521	40	ST CHARLES PARISH	70079NRCFR15536	NORCO FRACTIONATION PLANT	148	ENTERPRISE PRODS GP LLC	15608 AIRLINE HWY.
30.475746	-90.414835	40	TANGIPAHOA PARISH	70403LFRGN42576	LAFARGE HAMMOND RMX	229	LAFARGE NORTH AMERICA INC	42576 CHAPMAN RD
30.184161	-90.992889	40	ASCENSION PARISH	70737SHLLCRIVER	SHELL CHEMICAL LP	219	SHELL PETROLEUM INC	7594 HIGHWAY 75
30.23019	-91.01912	40	ASCENSION PARISH	70734RGSGL35114	AIRGAS USA LLC	110	AIRGAS INC	35114 HIGHWAY 30
30.233183	-91.051	40	ASCENSION PARISH	70734NNTXSLAHWY	NOVA CHEMICALS OLEFINS LLC	131		5205 HWY 3115
30.47132	-91.09964	40	EAST BATON ROUGE PARISH	70815GLFWN8325S	GULF WANDES	100		8325 S CHOCTAW
30.010358	-91.106768	40	ASSUMPTION PARISH	70341KCHHY6225H	KOCH HYDROCARBON S.E. INC. PROMIX L.L.C.	131	KOCH INDUSTRIESS INC	6225 HWY. 996
30.076111	-91.934167	40	ST MARTIN PARISH	7051WTHMSP136PE	THOMAS PETROLEUM LLC LAFAYETTE	217	THOMAS PETROLEUM LLC	1306 PETROLEUM PKWY
31.28472	-92.4326	40	RAPIDES PARISH	71301DRWDT1KOPP	STELLA-JONES CORP	227	STELLA-JONES US HOLDING CORP	3600 KOPPERS ST
30.196389	-93.306944	40	CALCASIEU PARISH	70669KRNSL3300B	LOUISIANA PIGMENT CO LP	167		3300 BAYOU D'INDE RD
32.027239	-93.713653	40	DE SOTO PARISH	71052HNDRXHWY17	HENSLEY INDUSTRIES LOUISIANA FOUNDRY	225	KOMATSU AMERICA CORP	816 JENKINS ST
32.426677	-93.920376	40	CADDO PARISH	71130TRCKN7600G	GMTG - SHREVEPORT ASSEMBLY	127	GENERAL MOTORS LLC	7600 GENERAL MOTORS BLVD
30.026179	-90.035993	39	ORLEANS PARISH	70186MDRLL6101F	M-I DRILLING FLUIDS CO. NEW ORLEANS	136	DRESSER/HALLIBURTON CO	6101 FRANCE RD.
30.01451	-90.40693	39	ST CHARLES PARISH	70079BGTHRCEDAR	AIR LIQUIDE AMERICA CORP	148	AIR LIQUIDE AMERICA CORP	211 CEDAR DR
30.241508	-91.105631	39	IBERVILLE PARISH	70776STFFRRIVER	PIONEER AMERICAS LLC (DBA OLIN CHLOR ALKALI PRODUCTS)	253	OLIN CORP	4205 HWY 75
32.455979	-91.50686	39	RICHLAND PARISH	71232TFTNL100TI	HYDRO EXTRUSION DELHI LLC	197	HYDRO EXTRUSION USA LLC	142 SAPA DR
30.1537	-91.99572	39	LAFAYETTE PARISH	70508SSFNT29GLA	SEASAFE INC	243	GIBRALTAR INDUSTRIES INC	209 GLASER DR
30.32294	-92.02853	39	LAFAYETTE PARISH	70520VNWTR220HE	UNIVAR USA INC LAFAYETTE	1085	UNIVAR USA INC	220 HECTOR CONNOLY RD
32.50055	-92.17048	39	OUACHITA PARISH	*	*	121	FLINT INK NORTH AMERICA CORP	*
30.26561	-93.28601	39	CALCASIEU PARISH	70669BGTHRCOLUM	BTI WESTLAKE AIR SEPARATION PLANT	168	AIR LIQUIDE AMERICA CORP	COLUMBIA SOUTHERN RD.
32.15889	-93.55667	39	DE SOTO PARISH	71052NTRNTHWY50	INTERNATIONAL PAPER CO - MANSFIELD MILL	317	INTERNATIONAL PAPER CO	1202 LOUISIANA HWY 509 NE
32.54254	-93.77243	39	CADDO PARISH	71137STLFR1810B	STEEL FORGINGS INC	164		1810 BARTON DR
32.61591	-93.92273	39	CADDO PARISH	71009PNCXXHIGHW	UOP-SHREVEPORT PLANT	142	HONEYWELL INTERNATIONAL INC	8725 OLD MOORINGSPORT RD
32.86314	-93.98262	39	CADDO PARISH	71082VPNCX680SO	VIVIAN INDUSTRIES INC	155		680 PARDUE ST
29.9674	-90.197203	38	JEFFERSON PARISH	70123LSNCC5601C	LOUISIANA COCA-COLA BOTTLING CO	144	COCA-COLA ENTERPRISES INC	5601 CITRUS BLVD
29.977812	-90.21142	38	JEFFERSON PARISH	70003BRTMR721AI	BARTO MARBLE CO INC	70	BARTO MARBLE CO INC	7021 AIRLINE DR
29.979608	-90.455466	38	ST CHARLES PARISH	70057SHLLCLA18A	SHELL CHEMICAL TAFT PLANT	176	SCOGI LOUISIANA HOLDINGS LLC	473 HWY. 3142
30.903806	-90.512581	38	TANGIPAHOA PARISH	70444KNTWD72199	KENTWOOD BRICK & TILE MANUFACTURING	163		72199 HWY 51 S
29.814962	-90.823355	38	LAFOURCHE PARISH	70301LFRGN41ARP	LAFARGE MID ATLANTIC THIBODAUX RMX	119	LAFARGE MID ATLANTIC	401 ARPENT DR
30.094366	-90.932598	38	ASCENSION PARISH	70346RCHRD2330H	RICHARD OIL & FUEL INC	308		2330 HWY 70
30.474977	-91.219641	38	WEST BATON ROUGE PARISH	70767XXNPR2230H	EXXONMOBIL ANCHORAGE TANK FARM	282	EXXON MOBIL CORP	1420 LAFITON LN
30.325882	-91.261732	38	WEST BATON ROUGE PARISH	70710SHNTC9750L	SHINTECH LOUISIANA LLC - ADDIS PLANT A	236	C-K TECH INC	9750 LOUISIANA HWY 1 S
32.45674	-91.49896	38	RICHLAND PARISH	71232STRCR802IL	BRUNSWICK CORP. MARINE DIV.	112	BRUNSWICK CORP	802 ILLINOIS AVE.
30.16716	-91.98409	38	LAFAYETTE PARISH	70508HGHSC120SP	BAKER HUGHES OILFIELD OPERATIONS LLC	325	BAKER HUGHES INC	120 SOUTHPARK RD
30.27083	-92.03728	38	LAFAYETTE PARISH	70507MCLHL31LAS	AMCOL HEALTH & BEAUTY SOLUTIONS INC	231	AMCOL INTERNATIONAL CORP	301 LASER LN
32.49754	-92.16556	38	OUACHITA PARISH	71292PLYMT601GR	PLYMOUTH TUBE CO	394	PLYMOUTH TUBE CO	601 GRANTHAM AVE
32.49754	-92.16574	38	OUACHITA PARISH	71291NCLNN602GR	ENCLEAN INC	394		602 GRANTHAN
30.275637	-92.358747	38	ACADIA PARISH	70526HSCXXLA111	GSX RECOVERY SYS. INC.	196	GSX CHEMICAL SERVICES INC	LA 1112
30.18357	-93.17675	38	CALCASIEU PARISH	70605MSHPLRT14B	MESH PLASTICS LTD.	71		2700 MCNEESE FARM RD., FARM RD.
30.21937	-93.32541	38	CALCASIEU PARISH	70663WSTLK3525C	WESTLAKE POLYMERS LP	251	WESTLAKE CHEMICAL CORP	3525 CITIES SERVICE HWY
30.156194	-93.339443	38	CALCASIEU PARISH	70663WRGRCDAVIS	W R GRACE & CO-CONN GRACE	334	W R GRACE & CO	1800 DAVISON RD
32.361156	-93.640738	38	CADDO PARISH	71115TRSHT1411H	CALUMET BRANDED PRODUCTS LLC	154	CALUMET OPERATING LLC	10411 HIGHWAY 1
32.361249	-93.640847	38	CADDO PARISH	7111WMNSPC1399H	OMNI SPECIALITY PACKAGING INC	154	OMNI INDUSTRIES	10399 HIGHWAY 1 SOUTH
29.873808	-89.856523	37	ST BERNARD PARISH	7008WLFRGV155EL	LAFARGE VERRET READY MIX	142	LAFARGE NA INC.	1505 E LA HWY 46
30.02499	-89.91942	37	ORLEANS PARISH	*	*	52	*	*
29.992967	-90.844045	37	ST JAMES PARISH	70086STJMSPOBOX	ST. JAMES SUGAR CO-OP INC.	163		5354 ST. JAMES CO-OP ST.
30.47266	-91.06876	37	EAST BATON ROUGE PARISH	70895HNTRZ2612T	ZEP MFG.CO.	220	NATIONAL SERVICES INDS	2612 TEE DR.
30.41991	-91.07269	37	EAST BATON ROUGE PARISH	70809GLFCS10000	BATON ROUGE COCA-COLA BOTTLING CO	160	COCA-COLA BOTTLING CO  UNITED INC	10000 DAWNADELE AVE
30.24916	-91.08888	37	IBERVILLE PARISH	70776BPRDC3830H	BCP INGREDIENTS INC	113	BALCHEM CORP	3830 HWY 30
30.244373	-91.099927	37	IBERVILLE PARISH	70776CBGGYRIVER	SYNGENTA CROP PROTECTION LLC SAINT GABRIEL FACILITY	195	SYNGENTA CORP	3905 HIGHWAY 75
30.475803	-91.208107	37	WEST BATON ROUGE PARISH	70767PLCDR1940L	PLACID REFINING CO LLC	125		1940 LOUISIANA HWY 1, N
29.825443	-91.540265	37	ST MARY PARISH	70514TCHPW237NE	TECHE POWER STATION	320	CLECO POWER LLC	237 NEWMAN ST
30.07783	-91.930045	37	LAFAYETTE PARISH	70518TXXXX23FRU	AOT	217	FORUM ENERGY TECHNOLOGIES	1023 FORUM DR
30.15473	-91.96522	37	LAFAYETTE PARISH	70518PTRLT355WS	PETROLITE CORP.	141	PETROLITE CORP	355 W. 2ND ST.
32.46772	-92.10785	37	OUACHITA PARISH	71201SNCLR3304J	SINCLAIR & VALENTINE L .P.	108	KINCLAIR & VALENTINE LP	3304 JACKSON ST.
31.37497	-92.42114	37	RAPIDES PARISH	71360SFTYK518RY	SAFETY-KLEEN SYSTEMS PINEVILLE (PIN)	81	CLEAN HARBORS INC	518 RYDER DR
30.832262	-92.628722	37	ALLEN PARISH	7146WFDRLCPB55X	FEDERAL CORRECTIONAL COMPLEX OAKDALE LOUSIANA	88	US DEPARTMENT OF JUSTICE	1507 E WHATLEY RD
32.690292	-92.664744	37	LINCOLN PARISH	71235DBCHGWESTO	DUBACH GAS CO.	153	ENDEVCO INC	WEST OF HWY.167 ON PLANT RD.
30.193916	-93.321347	37	CALCASIEU PARISH	70602HMNTSLAHWY	EQUISTAR CHEMICALS LP - LAKE CHARLES POLYMERS	143	LYONDELLBASELL INDUSTRIES	4101 LA HWY 108
32.030322	-93.346733	37	RED RIVER PARISH	71019HDNDS306WI	IDAHO TIMBER OF COUSHATTA LLC	198		306 WILKINSON ST
32.52913	-93.65975	37	BOSSIER PARISH	71112CNTNN5310K	WAYNE FARMS LLC DUTCH QUALITY HOUSE 2 BUS UNIT	213	CONTIGROUP COMPANIES INC	5310 KENNON LN
32.47095	-93.77849	37	CADDO PARISH	71103CDDPN2501F	CADDO PIGMENT LLC	533		2501 FULTON ST
32.40827	-93.84808	37	CADDO PARISH	7112WPGHLB535FL	PUGH LUBRICANTS - SHREVEPORT	177	PUGH LUBRICANTS	5035 FLOURNOY LUCAS RD
32.43882	-93.90012	37	CADDO PARISH	71129GNRLL7000B	GE COMMERCIAL TRANSFORMER	134	GENERAL ELECTRIC CO (GE CO)	7000 W BERT KOUNS INDUSTRIAL LOOP
30.315826	-89.777426	36	ST TAMMANY PARISH	70458LFRGN15IND	LAFARGE SLIDELL RMX	272	LAFARGE N.A. INC	150 INDUSTRIAL DR
29.98624	-90.266543	36	JEFFERSON PARISH	70062MTVNT143FI	SHELL KENNER TERMINAL	126	SHELL OIL PRODUCTS US	143 FIREHOUSE DR
29.980201	-90.456558	36	ST CHARLES PARISH	70057NNCRBROUTE	PRAXAIR DISTRIBUTION INC	176	PRAXAIR INC	261 HWY 3142
29.985	-90.460833	36	ST CHARLES PARISH	70057KCHNDLAHWY	KOCH FERTILIZER LLC - TAFT TERMINAL	222	KOCH INDUSTRIES INC	266 LA HWY 3142
30.096613	-90.873958	36	ST JAMES PARISH	7072WMLLNN9113W	MILLENNIUM GALVANIZING LLC	183	CREST OPERATIONS	91130 WINNIE RD
30.20426	-90.92052	36	ASCENSION PARISH	70737NCLNS3125S	CHEMSTATION	125	CHEMSTATION INTL	3125 S. BURNSIDE
32.958821	-91.86538	36	MOREHOUSE PARISH	7122WMRHSB6299C	MOREHOUSE BIOENERGY LLC	55	DRAX BIOMASS INC.	6299 CARL RD
30.077848	-91.930295	36	ST MARTIN PARISH	7051WTXXXX3711M	AOT	217	FORUM ENERGY TECHNOLOGIES	1023 FORUM DRIVE
32.515146	-92.10416	36	OUACHITA PARISH	7120WRGSSL41N18	AIRGAS USA LLC	193	AIRGAS INC	410 N 18TH ST
32.47914	-92.11288	36	OUACHITA PARISH	71202BRDNN2407S	BORDEN INC. DAIRY DIV.	376	BORDEN INC	2407 GRAND ST.
30.220303	-93.13836	36	CALCASIEU PARISH	70615SPRTC111JA	SPARTECH POLYCOM INC	137	SPARTECH CORP	1101 JAMES SUDDUTH PKWY
32.499	-93.672	36	BOSSIER PARISH	71110SRFRC2CES3	US DOD USAF BARKSDALE AFB	89	US DEPARTMENT OF DEFENSE	334 DAVIS AVE W SUITE 208
32.40862	-93.744	36	CADDO PARISH	71106BRDND601BE	BEAIRD CO LTD.	235		601 BENTON KELLY ST
29.92968	-90.04512	35	JEFFERSON PARISH	70053LSNCC1000B	LOUISIANA COCA-COLA BOTTLING CO	100	COCA-COLA ENTERPRISES INC	1000 BURMASTER ST
29.95478	-90.19612	35	JEFFERSON PARISH	70181MGNLC1020S	INDUSTRIAL CHEMICAL - JEFFERSON	198		1020 SAMS AVE
29.95886	-90.19764	35	JEFFERSON PARISH	70123DSTNC1320S	CROMPTON CORP	163	CROMPTON CORP	1320 SAMS AVE
29.952222	-90.328556	35	ST CHARLES PARISH	70087HLLPT27009	EQUILON ENTERPRISES LLC DBA SHELL OIL PRODUCTS US	167	SHELL OIL PRODUCTS US	11842 RIVER RD
30.75094	-90.50221	35	TANGIPAHOA PARISH	70422MTFND13040	BRADKEN INC	118	BRADKEN INC	13040 FOULKS LN
30.543189	-91.06335	35	EAST BATON ROUGE PARISH	70818BHRNS11212	BEHRENS REPACKERS	114		11212 HOOPER RD
32.524445	-91.134105	35	MADISON PARISH	71282CMPLXPOBOX	COMPLEX CHEMICALS CO INC	73		MADISON PARISH IND US TRIAL PARK 177 COMPLEX CHEMI
30.484917	-91.17392	35	EAST BATON ROUGE PARISH	70805XXNBT4050S	EXXONMOBIL BATON ROUGE REFINERY (PART)	72	EXXON MOBIL CORP	4045 SCENIC HWY
30.495243	-91.17822	35	EAST BATON ROUGE PARISH	7080WWRGRC121GU	W R GRACE & CO - CONN	188	W R GRACE & CO - CONN	1201 GULF STATES UTILITY ROAD
30.436389	-91.21	35	WEST BATON ROUGE PARISH	70767NTRNT2180L	TURNER INDUSTRIES GROUP LLC	157	TURNER INDUSTRIES GROUP LLC	2180 LA HWY 1 S
30.38831	-91.31271	35	WEST BATON ROUGE PARISH	70719TRNTY7555C	TRINITY MARINE PRODUCTS INC PLT 48	93	TRINITY INDUSTRIES INC	7555 CHOCTAW RD
30.05139	-91.93583	35	IBERIA PARISH	70560LSNBL4218C	LOUISIANA BLASTING & COATING LLC	482		4218 COTEAU RD
30.521507	-92.105798	35	ST LANDRY PARISH	70571SLCDBPOBOX	SILCO (DBA ELCO FOREST PRODUCTS)	209		4546 HWY 357
32.498044	-92.106474	35	OUACHITA PARISH	7120WMNRGR43LAH	MONROE GRAPHICS PORTABLE READY MIX	132	MARTIN MARIETTA MATERIALS INC	430 LA HWY 594
30.24864	-92.19911	35	ACADIA PARISH	7057WFLWCH289CU	FLOWCHEM TECHNOLOGIES LLC	94		289 CUTLASS LP
31.13835	-92.41098	35	RAPIDES PARISH	7134WCRGLL16FEE	CARGILL ANIMAL NUTRITION	107	CARGILL INC	16 FEED MILL ROAD
30.159722	-93.343889	35	CALCASIEU PARISH	70663STHRN1697D	SOUTHERN IONICS INC	104		1697 DAVISON RD
32.069215	-93.758699	35	DE SOTO PARISH	71052CMTBFDESOT	ACME ROMAC INC.	168	PREMIERE PIPE & TUBE GROUP INC	325 LIBERTY LN. RTE. 171 DESOTO INDUSTRIAL PARK
30.039296	-90.829342	34	ST JAMES PARISH	70792GRCCHEASTB	MOSAIC FERTILIZER LLC UNCLE SAM PLANT	128	THE MOSAIC CO	7250 HWY 44
30.484645	-90.896361	34	LIVINGSTON PARISH	70726RLPHWHIGHW	WILSONART INTERNATIONAL ADHESIVE DIV.	383	ILLINOIS TOOL WORKS	9083 FLORIDA BLVD. E.
30.098563	-90.95599	34	ASCENSION PARISH	70346CFNDSHWY30	CF INDUSTRIES NITROGEN LLC	292	CF INDUSTRIES HOLDINGS INC	39018 HWY 3089
29.855823	-90.98515	34	ASSUMPTION PARISH	70372SPRMSHWY10	SUPREME SUGAR INC.	191	TATE & LYLE PLC	211 HWY. 1011
30.25939	-91.07509	34	IBERVILLE PARISH	7077WTRYMN355CY	TROY MANUFACTURING	182	TROY MANUFACTURING	3505 CYPRESS AVE
29.98357	-91.08249	34	ASSUMPTION PARISH	70391DGSLBHWY10	DUGAS & LEBLANC LTD	240		451 HWY 1005
30.249722	-91.084722	34	IBERVILLE PARISH	70776GRFBRHWY30	DELTA COS GROUP ST GABRIEL	144	GREIF INC	3950 HIGHWAY 30
30.249722	-91.085	34	IBERVILLE PARISH	70776HRCRS3920H	HARCROS CHEMICALS INC	144	HARCROS CHEMICALS INC	3920 HIGHWAY 30
30.560139	-91.2055	34	EAST BATON ROUGE PARISH	70807LLDSG12875	EXXONMOBIL CHEMICAL CO BATON ROUGE POLYOLEFINS PLANT	207	EXXON MOBIL CORP	12875 SCENIC HWY
30.56755	-91.20637	34	EAST BATON ROUGE PARISH	70807SFTYK13351	CLEAN HARBORS BATON ROUGE LLC	90	CLEAN HARBORS ENVIRONMENTAL SERVICES INC.	13351 SCENIC HWY
30.500053	-91.226817	34	WEST BATON ROUGE PARISH	70767WSTSD3520S	WESTSIDE GALVANIZING SERVICES INC	225	AZZ INC	3520 S RIVERVIEW RD
30.49891	-91.22691	34	WEST BATON ROUGE PARISH	70767DSCVR3502S	BASF CORP - PORT ALLEN WO RKS	228	BASF CORP	3502 S RIVERVIEW DR
30.360343	-91.263578	34	WEST BATON ROUGE PARISH	70710SHWSS7012L	SHAW SSS FABRICATORS INC	206	THE SHAW GROUP INC	6501 1ST ST
30.07663	-91.93983	34	LAFAYETTE PARISH	70518BKRSN4440H	BAKER OIL TOOLS LAFAYETTE MANU FACTURING	172	BAKER HUGHES INC	1100 BAKER HUGHES DR
30.16391	-91.98815	34	LAFAYETTE PARISH	70508NNCMP204SO	UNION CAMP CORP.	94	UNION CAMP CORP	204 SOUTHPARK RD.
32.49236	-92.17551	34	OUACHITA PARISH	71292SHWPR800NE	SHAW PROCESS FABRICATORS INC	217	THE SHAW GROUP INC	800 NEW NATCHITOCHES RD
30.002417	-90.4235	33	ST CHARLES PARISH	70079RSLTN16122	HEXION INC	122	HEXION HOLDINGS LLC	16122 RIVER RD LOT 3
30.504269	-90.636794	33	LIVINGSTON PARISH	70744WYRHS17391	WEYERHAEUSER NR CO HOLDEN WOOD PRODUCTS	101	WEYERHAEUSER CO	17391 FLORIDA BLVD
30.148196	-90.909296	33	ASCENSION PARISH	70737RMTCRLAHWY	ALMATIS BURNSIDE INC	180		41237 HWY 22
30.096905	-90.953444	33	ASCENSION PARISH	70346MLMNC39041	TERRA MISSISSIPPI NITROGEN (MELAMINE FACILITY)	106	TERRA INDUSTRIES INC	39041 HWY 18 W
30.35567	-91.0468	33	EAST BATON ROUGE PARISH	70810DSPCL15915	FUTURE PIPE INDUSTRIES	181		15915 PERKINS RD
30.473113	-91.06664	33	EAST BATON ROUGE PARISH	70814BRGSN2667W	MERCK ANIMAL HEALTH	145	MERCK & CO INC	2667 W DUAL ST
30.225083	-91.069424	33	IBERVILLE PARISH	70721FNLCHLAHWY	TOTAL PETROCHEMICALS & REFININ USA INC CARVILLE POLYSTYRENE	124		6225 HWY 75
30.26023	-91.07254	33	IBERVILLE PARISH	70776DLTDS7200H	BRENNTAG SOUTHWEST INC ST GABRIEL	182	BRENNTAG N.A. INC	7200 HIGHWAY 74
30.498203	-91.189148	33	EAST BATON ROUGE PARISH	70805FRMSPGULFS	FORMOSA PLASTICS CORP LOUISIANA	229	FORMOSA PLASTICS CORP USA	GULF STATES RD
30.55991	-91.20212	33	EAST BATON ROUGE PARISH	70807XXNCH12480	EXXONMOBIL CHEMICAL CO - BATON ROUGE RESIN FINISHING PLANT	175	EXXON MOBIL CORP	12480 SCENIC HWY
30.0575	-91.88093	33	IBERIA PARISH	7056WCRBCR481IN	CARBO CERAMICS INC NEW IBERIA FACILITY	150	CARBO CERAMICS INC	4810 INDUSTRIAL DR
30.106591	-91.942897	33	LAFAYETTE PARISH	70518SCHMT5750H	M-I LLC	365	SCHLUMBERGER HOLDINGS CORP	5750 HWY 90E
30.221944	-92.050556	33	LAFAYETTE PARISH	70506BRDNN1308B	BORDEN DAIRY CO OF TEXAS LLC	329	BORDEN DAIRY CO	1308 BERTRAND DR
30.23214	-92.06655	33	LAFAYETTE PARISH	70506MYFRW4100C	MAYFAIR WINDOW & DOOR CO. L.P.	208		4100 CAMERON ST.
32.521556	-92.096889	33	OUACHITA PARISH	71201NXRLL2707N	NEXAIR LLC	435		2707 NEWCOMBE ST
32.482657	-93.50974	33	BOSSIER PARISH	7103WMLTCH6491H	MULTI-CHEM GROUP HAUGHTON LA FACILITY	58	HALLIBURTON ENERGY SERVICES INC	6491 HIGHWAY 157
32.55114	-93.65443	33	BOSSIER PARISH	71111HTCRF5007H	CERRO FLOW PRODUCTS INC	98	BERKSHIRE HATHAWAY	5007 HAZEL JONES RD
32.53383	-93.6811	33	BOSSIER PARISH	7111WCCTSW4117M	CACTUS WELLHEAD LLC-BOSSIER CITY FACILITY	182	CACTUS WELLHEAD LLC	4117 MEADOW LN
30.56736	-89.87985	32	ST TAMMANY PARISH	7043WMCKNZ7815C	MACKENZIE CO LLC	107		78015 CHEMICAL RD
30.010014	-90.029081	32	ORLEANS PARISH	70126QTBLD4325F	EQUITABLE/HALTER	154	TRINITY INDUSTRIES INC	4325 FRANCE RD.
29.96545	-90.13851	32	JEFFERSON PARISH	70121SZRCC803JE	SAZERAC CO. INC.	86		803 JEFFERSON HWY.
29.98376	-90.26403	32	JEFFERSON PARISH	70065RPRTR48CRF	AIRPORT RMX	96	LAFARGE MID ATLANTIC	480 CROFTON RD
30.10846	-90.89677	32	ST JAMES PARISH	70723TXCRFFOOTO	CONVENT REFINERY	148	SHELL OIL PRODUCTS US	FOOT OF SUNSHINE BRIDGE- LA HW Y 44
30.186465	-90.981179	32	ASCENSION PARISH	70734VLCNMASHLA	OCCIDENTAL CHEMICAL HOLDING CORP - GEISMAR PLANT	105	OCCIDENTAL CHEMICAL HOLDING CORP	8318 ASHLAND RD
30.205046	-91.005453	32	ASCENSION PARISH	70734NRYLCPOBOX	LION COPOLYMER GEISMAR LLC	88	LION COPOLYMER HOLDINGS LLC	36191 LOUISIANA HWY 30
30.472455	-91.140295	32	EAST BATON ROUGE PARISH	70805CPTLS2655N	CMC STEEL FABRICATORS INC. DBA CMC CAPITOL STEEL	81	COMMERCIAL METALS CO	1235 CENTER POINTE DR
30.49375	-91.17874	32	EAST BATON ROUGE PARISH	70805LBMRLGULFS	ALBEMARLE CORP	188	ALBEMARLE CORP	1201 GULF STATES RD
30.262255	-91.185837	32	IBERVILLE PARISH	70765GRGGLHIGHW	AXIALL LLC	228	WESTLAKE CHEMICAL CORP	26100 HWY 405 S
30.3288	-91.2792	32	WEST BATON ROUGE PARISH	70710SDRCHPOBOX	ADDIS CARBON BLACK PLANT	312	TOKAI CARBON CB	5221 SID RICHARDSON RD
30.16833	-92.02442	32	LAFAYETTE PARISH	7050WSTLLR32RUE	STULLER INC	99		302 RUE LOUIS XIV
31.057278	-92.13995	32	AVOYELLES PARISH	71341THPLLROUTE	PILLSBURY CO.	148	PILLSBURY CO	RTE. 1 (3 MILES ON LA HWY., 114 FROM LA HWY. 1)
30.230833	-92.306667	32	ACADIA PARISH	70578BKRPT135IN	BAKER PETROLITE-RAYNE FACILITY	234	BAKER HUGHES A GE CO	135 INDUSTRIAL DR
31.26317	-92.4515	32	RAPIDES PARISH	71301BCCTT3400M	COTTON BROTHERS BAKERY INC.	183	INTERSTATE BRANDS CORP	3400 MACARTHUR DR.
31.314071	-92.458471	32	RAPIDES PARISH	7130WTXLXN13ASH	TXI-ALEXANDRIA READY MIX PLANT #1	181	MARTIN MARIETTA MATERIALS INC	1300 ASHLEY AVE
30.476129	-90.960628	31	LIVINGSTON PARISH	70726LRDLC914FL	LARD OIL CO INC.	81		914 FLORIDA BLVD., SW
30.47238	-91.06022	31	EAST BATON ROUGE PARISH	70815DNLLB11150	DANELL BATTERY MANUFACTURING CO	99		11150 SOUTH CHOCTAW DR
30.47236	-91.06097	31	EAST BATON ROUGE PARISH	70805SHLND11109	NEXEO SOLUTIONS LLC	99	NEXEO SOLUTIONS HOLDINGS LLC	11109 S CHOCTAW DR
30.24016	-91.08795	31	IBERVILLE PARISH	70776CBSPC4200G	NACHURS ALPINE SOLUTIONS	148	TRANS RESOURCES INC	5100 GEIGY ACCESS RD
30.495769	-91.173111	31	EAST BATON ROUGE PARISH	70805XXNCH4999S	EXXONMOBIL BATON ROUGE CHEMICAL PLANT (PART)	88	EXXON MOBIL CORP	4999 SCENIC HWY
30.819535	-91.663565	31	POINTE COUPEE PARISH	70715NNYPLLA1NO	NAN YA PLASTICS CORP AMERICA	421	NAN YA PLASTICS CORP AMERICA	5561 NORMANDY RD
30.0546	-91.87869	31	IBERIA PARISH	7056WCMRNN4919W	CAMERON INTERNATIONAL	110	SCHLUMBERGER HOLDINGS CORP	4919 W ADMIRAL DOYLE DR
30.14583	-91.93665	31	LAFAYETTE PARISH	70518CHMPN34IDA	CLARIANT CORP - BROUSSARD SITE	134	CLARIANT CORP	304 IDA RD
30.234859	-92.104525	31	LAFAYETTE PARISH	7058WLSNPL6325C	LOUISIANA PLATING & COATINGS LLC	118	HOUSTON PLATING & COATINGS LLC	6325 CAMERON ST
31.729444	-93.075	31	NATCHITOCHES PARISH	71457LTTLC1855H	LOTT OIL CO	135		1855 HWY 1 S
30.20926	-93.34148	31	CALCASIEU PARISH	70664HMSTD1750S	OHMSTEDE LTD	235	EMCOR GROUP INC	1750 SWISCO RD
32.557142	-93.436928	31	WEBSTER PARISH	71055BSTMN924HA	BST MANUFACTURING INC	69	ORICA USA INC	924 HAWAII AVE
30.7766	-89.8577	30	WASHINGTON PARISH	70427GYLRD4THST	INTERNATIONAL PAPER BOGALUSA MILL	56	INTERNATIONAL PAPER CO	898 W 4TH ST
29.93275	-89.92217	30	ST BERNARD PARISH	7007WVLRPR25EST	VALERO PARTNERS LLC	82	VALERO ENERGY CORP	2500 E ST BERNARD HWY - A PORTION OF
29.938021	-89.977304	30	ST BERNARD PARISH	70043CHLMT7CKEP	RAIN CII CARBON LLC	204	RAIN CII CARBON LLC	700 COKE PLANT RD
29.95045	-90.19458	30	JEFFERSON PARISH	70183DXPRDGSTXX	DIXIE PRODUCE & PACKAGING INC	186		G  STREET
30.427222	-90.198611	30	ST TAMMANY PARISH	70447MDSNVHIGHW	MADISONVILLE WOOD PRESERVING, CO. INC.	184		1421 HWY. 22 W.
30.63489	-90.49907	30	TANGIPAHOA PARISH	70443CLNBC100CA	WATERBURY COS INC	63		129 CALHOUN ST
30.504474	-90.51346	30	TANGIPAHOA PARISH	7040WSTHRN41HWY	SOUTHERN FOODS GROUP LLC OF HAMMOND	82	DEAN FOODS CO	4001 HWY 190 W
30.10817	-90.88404	30	ST JAMES PARISH	70723RPRDC1759C	AIR PRODUCTS & CHEMICALS INC - CONVENT SMR	128	AIR PRODUCTS & CHEMICALS INC	10759 CONVENT WAY
30.208604	-91.011128	30	ASCENSION PARISH	70734BRDNCLOUIS	WESTLAKE VINYLS CO	153	WESTLAKE CHEMICAL CORP	36045 HWY 30
32.49506	-91.99052	30	OUACHITA PARISH	71203NLNDFI20LO	GUIDE LOUISIANA LLC	102		11000 MILLHAVEN RD
30.784301	-92.033656	30	ST LANDRY PARISH	71356MRTCP116RO	LEMOYEN MILL & TIMBER LLC	86		116 ROY BAKER RD
30.25413	-92.05644	30	LAFAYETTE PARISH	70583SCTTB812RE	NALCO COMPANY-SCOTT	150	ECOLAB INC	812 RENAUD DR
32.5178	-92.1063	30	OUACHITA PARISH	71201FLVRC1801L	FLAV-O-RICH INC.	95		1801 LOUISVILLE AVE.
31.27924	-92.4469	30	RAPIDES PARISH	71301FCNDS3400R	AFCO INDUSTRIES INC	201		3400 ROY AVE
32.378376	-93.640883	30	CADDO PARISH	71115STLSC25RNB	TERNIUM USA INC	71	TERNIUM	2500 RON BEAN BLVD
29.88822	-90.13679	29	JEFFERSON PARISH	70094CHMRC1100V	CHEMRICH INC.	290	ALBRIGHT & WILSON AMERICAS	1100 VICTORY DR.
29.95198	-90.18536	29	JEFFERSON PARISH	70123WLLCR600EL	WALLE CORP.	129		600 ELMWOOD PARK BLVD.
29.92028	-90.19056	29	JEFFERSON PARISH	*	*	153	HUNTINGTON INGALLS INDUSTRIES	*
29.92444	-90.352217	29	ST CHARLES PARISH	70070MNSNTRIVER	MONSANTO LULING	152	BAYER CORP	12501 RIVER RD
30.003106	-90.393377	29	ST CHARLES PARISH	70079CYPRS901PR	CYPRESS POLYPROPYLENE PLANT UNION CARBIDE CORP.	94	DOW CHEMICAL CO	901 PROSPECT AVE PO BOX 518
30.0589	-90.5241	29	ST JOHN THE BAPTIST PARIS	70069DPNTPHIGHW	DUPONT PONTCHARTRAIN WORKS	139	E I DU PONT DE NEMOURS & CO	586 HWY 44
30.456892	-90.745114	29	LIVINGSTON PARISH	7075WPCPPN28445	EPIC PIPING - FROST	50	EPIC PIPING LLC	28445 S FROST RD
30.221509	-90.903967	29	ASCENSION PARISH	70737NCLNN1425S	ENCLEAN INC.	88		1425 S. PURPERA
30.2572	-91.07232	29	IBERVILLE PARISH	70776PLNTM365DE	THORPE PLANT SERVICES INC	108	CAPSTREET GROUP	3605 DELTA DR
30.15956	-91.97448	29	LAFAYETTE PARISH	7051WVLLRC41CMM	VALLOUREC TUBE-ALLOY	142	VALLOUREC HOLDINGS	410 COMMERICAL BLVD
32.512655	-92.061388	29	OUACHITA PARISH	71203TYCPL4611C	COVALENCE SPECIALTY MATERIALS CORP	129	COVALENCE PLASTICS	4611 CENTRAL AVE
32.51278	-92.06281	29	OUACHITA PARISH	7120WGRDNR461CE	GARDNER DENVER THOMAS	129	GARDNER DENVER INC	4601 CENTRAL AVE
30.23456	-92.09961	29	LAFAYETTE PARISH	70583SGRDN912ST	ESGARD INC	128		912 ST ANNE ST
30.24206	-93.20806	29	CALCASIEU PARISH	70601CRBLN900OP	CARBOLINE CO	278	RPM INTERNATIONAL INC	900 OPELO US AS ST
32.34318	-93.211503	29	BIENVILLE PARISH	71045CMBRC3457H	ACME BRICK CO. DIXIE PLANT	64	ACME BRICK CO	3457 HWY. 792
30.186144	-93.331209	29	CALCASIEU PARISH	70602FRSTNLA108	FIRESTONE POLYMERS LLC	136	BRIDGESTONE PROCUREMENT HOLDINGS USA INC	1801 E LA HWY 108
32.60327	-93.30607	28.5	WEBSTER PARISH	71055RSKNM900ER	RUSKIN CO.	42	TOMKINS INDUSTRIES	900 ERWIN THOMPSON DR.
29.974902	-90.160174	28	JEFFERSON PARISH	70001LFRGN332AI	LAFARGE AIRLINE RMX	73	LAFARGE NA INC	3320 AIRLINE DR
29.961698	-90.181663	28	JEFFERSON PARISH	70121NRTHS5042B	NORTH STAR STEEL CO.	117	CARGILL INC	5042 BLOOMFIELD ST.
29.40915	-90.28596	28	LAFOURCHE PARISH	7035WGRNDS18838	GRAND ISLE SHIPYARD INC	39		18838 HWY 3235
29.92211	-90.355268	28	ST CHARLES PARISH	7007WRPRDC1251B	AIR PRODUCTS & CHEMICALS INC LULING SMR	152	AIR PRODUCTS & CHEMICALS INC.	12501 B RIVER RD
30.47588	-90.4521	28	TANGIPAHOA PARISH	70403TYLRT16152	TAYLORTEC, INC.	261		16152 E CLUB DELUXE RD
30.50211	-90.82882	28	LIVINGSTON PARISH	70785SNLND30103	CB&I WALKER LA LLC	151	CBI GROUP INC	30103 SUNLAND DR
30.026348	-90.845596	28	ST JAMES PARISH	70086STJMS7167K	KOCH SUPPLY & TRADING LP ST. JAMES TERMINAL	49	KOCH SUPPLY & TRADING LP	7167 KOCH RD
30.484917	-90.951502	28	LIVINGSTON PARISH	7072WNGLLM425FL	ANGELLE MATERIALS - DELTA CONCRETE	83	ANGELLE CONCRETE GROUP LLC	425 FLORIDA AVE SE
30.2594	-91.1737	28	IBERVILLE PARISH	70764LLMNXHWY40	SHINTECH PLAQUEMINE PLANT	61	C-K TECH INC	26270 HWY 405
30.123906	-91.834763	28	ST MARTIN PARISH	70582HNSNP52WPR	FORTERRA PIPE & PRECAST - SAINT MARTINVILLE	98	FORTERRA INC	520 PORT ST
30.23251	-92.06374	28	LAFAYETTE PARISH	70506PRDCT3810C	PRODUCTION EQUIPMENT SERVICE, INC.	157		3810 CAMERON ST.
30.23843	-92.08334	28	LAFAYETTE PARISH	70583SGRDN515DE	ESGARD INC	191		515 DEBONNAIRE RD
30.190568	-93.325823	28	CALCASIEU PARISH	70663CCDNTHIGHW	INDORAMA VENTURES OLEFINS LLC	170	INDORAMA VENTURES OLEFINS HOLDINGS LLC	4300 HIGHWAY 108
30.20927	-93.33865	28	CALCASIEU PARISH	70665PMPLL1890S	PUMPELLY OIL ACQUISITION LLC	206	RELADYNE LLC	1890 SWISCO RD
32.5422	-93.421	28	WEBSTER PARISH	*	*	72	*	*
32.956804	-93.455663	28	WEBSTER PARISH	71071CNTNN26755	CONTINENTAL STRUCTURAL PLASTICS OF LOUISIANA	85	CONTINENTAL STRUCTURAL PLASTICS	26755 US-371
30.13562	-91.94172	27.5	LAFAYETTE PARISH	70518DPSTH228MI	DEEP SOUTH CHEMICAL INC	43	DEEP SOUTH CHEMICAL INC	229 MILLSTONE RD
29.376271	-89.584564	27	PLAQUEMINES PARISH	70050MPRMNHWY11	EMPIRE MENHADEN CO. INC.	321		HWY. 11 S.
30.02669	-89.92725	27	ORLEANS PARISH	70129DLXCH4375M	DELUXE CHECK PRINTERS INC.	42	DELUXE CORP	4375 MICHOUD BLVD.
30.024247	-89.947039	27	ORLEANS PARISH	70126LFRGN119CH	LAFARGE NEW ORLEANS EAST  RMX	52	LAFARGE NA INC	11900 CHEF MENTEUR HWY
29.947177	-90.183488	27	JEFFERSON PARISH	70123CHMCM5501J	CHEMCOM INC OF THE SOUTH	246		5501 JEFFERSON HWY BLDG 3
30.065278	-90.829167	27	ST JAMES PARISH	70723CSMTL7591H	CS METALS OF LOUISIANA LLC	174	CRI METAL PRODUCTS INC	7591 HWY 3214
30.076718	-90.860002	27	ST JAMES PARISH	7072WNCRST911HW	NUCOR STEEL LOUISIANA LLC	80	NUCOR CORP	9101 HWY 3125
30.41898	-91.23679	27	WEST BATON ROUGE PARISH	70767TRDNT2660A	NALCO CO	172	ECOLAB INC	2660 AMERICAN WAY
30.23513	-92.26254	27	ACADIA PARISH	70578BDYMS700ET	BODY MASTERS SPORTS INDUSTRY	181		700 E TEXAS AVE
29.382382	-89.592342	26	PLAQUEMINES PARISH	70050PTRFSHWY11	DAYBROOK FISHERIES INC	319		136 DAYBROOK LN
30.0081	-89.9374	26	ORLEANS PARISH	70129NTRGY3601P	ENTERGY MICHOUD PLANT	119	ENTERGY CORP	3601 PARIS RD
29.974647	-89.947289	26	ST BERNARD PARISH	70044CRWBT5425P	CREWBOATS INC	41		5425 PARIS RD
29.83354	-90.05673	26	PLAQUEMINES PARISH	70037WSGSS111BU	IWS GAS & SUPPLY	62		111 BURAS DR
29.94169	-90.07703	26	ORLEANS PARISH	70113BRWNS13BAR	SOUTHERN FOODS GROUP LLC D/B/A BROWN'S DAIRY	99	DEAN FOODS CO	1300 BARONNE ST
29.88955	-90.08042	26	JEFFERSON PARISH	70058HRVYC12081	VARCO L.P. TUBOSCOPE DIV. HARVEY COATING PLANT	42	VARCO LP	1208 1ST AVE.
29.939363	-90.18997	26	JEFFERSON PARISH	70123HLLBH6141J	HILL-BEHAN LUMBER CO	71		6141 JEFFERSON HWY
30.067723	-90.578248	26	ST JOHN THE BAPTIST PARIS	70084RHNPL430NW	RHONE-POULENC	145	RHONE-POULENC INC	430 N.W. 19TH ST.
30.06793	-90.57826	26	ST JOHN THE BAPTIST PARIS	70084LCLCX430NO	EVONIK MATERIALS CORP	145	EVONIK CORP	474 W 19TH ST
30.05509	-90.83084	26	ST JAMES PARISH	70723CCDNTHIGHW	OCCIDENTAL CHEMICAL HOLDING CORP	234	OCCIDENTAL CHEMICAL HOLDING CORP	7377 HWY 3214
30.209725	-91.012892	26	ASCENSION PARISH	70734BSFCRRIVER	BASF CORP	86	BASF CORP	8404 HWY 75
30.51386	-91.17858	26	EAST BATON ROUGE PARISH	70807NXCRT1400M	NOX-CRETE OF LOUISIANA INC.	247	NOX-CRETE INC	1400 MENGEL RD.
29.66806	-91.24139	26	ST MARY PARISH	70342MDSTR1SPIR	MIDSTREAM FUEL SERVICE LLC BERWICK	293	MARTIN OPERATING PTNR LP	100 SPIRIT LN
32.783323	-91.90935	26	MOREHOUSE PARISH	71220NTRNT705CO	INTERNATIONAL PAPER CO - LOUISIANA MILL	45	INTERNATIONAL PAPER CO	705 COLLIERS LN
30.242012	-92.655418	26	JEFFERSON DAVIS PARISH	7054WNVTJN119EA	NOV T3 JENNINGS	134	NATIONAL OILWELL VARCO LP	119 EAST INTERSTATE DRIVE
30.28614	-93.1448	26	CALCASIEU PARISH	70616GLDLN4646H	PELICAN REFINING CO LLC	144	PELICAN REFINING CO LLC	4646 LA. HWY 3059
30.179916	-93.359229	26	CALCASIEU PARISH	70663WSTLK900HA	WESTLAKE PETROCHEMICALS ETHYLENE	45	WESTLAKE CHEMICAL CORP	900 E HIGHWAY 108
29.934296	-89.972191	25	ST BERNARD PARISH	70143TNNCL500WE	CHALMETTE REFINING LLC	131		500 W ST BERNARD HWY
30.00127	-90.02096	25	ORLEANS PARISH	70126BLLNG3900J	BOLLINER GULF REPAIR LLC	45	BOLLINGER SHIPYARDS LOCKPORT LLC	3900 JOURDAN RD
29.885952	-90.076868	25	JEFFERSON PARISH	70058FNLCH1401D	SIGMA COATINGS USA B.V.	57		1401 DESTRAHAN AVE
29.88401	-90.08088	25	JEFFERSON PARISH	70058JFFRS1524M	JEFFERSON FIBERGLASS CO. INC.	42	JEFFERSON FIBERGLASS CO. INC.	1524 MACARTHUR AVE
30.39501	-90.08395	25	ST TAMMANY PARISH	70448MRBLQ399HW	MARBLE QUARRY INC	104		399 ASBURY DR
29.96484	-90.13307	25	JEFFERSON PARISH	70121SHLLL309JE	SHELL OIL PRODUCTS US	48	PENNZOIL-QUAKER STATE CO (DBA SOPUS PRODUCTS)	309 JEFFERSON HWY
29.94553	-90.19406	25	JEFFERSON PARISH	70123TRNSG6101H	TRANS GULF IND. INC.	232	TRANSGULF IND INC	6101 HUMPHREY ST.
29.375915	-90.259825	25	LAFOURCHE PARISH	70357SCSFR118ND	MARTIN OPERATING PTNR - FOURCHON 16	124	MARTIN OPERATING PTNR LP	118 DOUCET DR
29.975508	-90.599274	25	ST JOHN THE BAPTIST PARIS	70049CRGRGPOBOX	CAIRE & GRAUGNARD	61		LA HWY 18 & SUGARHOUSE RD
30.21035	-90.98073	25	ASCENSION PARISH	70737LQDCR37274	PRAXAIR DISTRIBUTION INC.	49	PRAXAIR INC	37256 HWY. 30
30.14602	-91.93951	25	LAFAYETTE PARISH	70518PPLDL28IDA	APPLIED ELECTRONIC SYSTEMS INC	39	GENERAL ELECTRIC CO (GE CO)	208 IDA RD
30.02148	-89.92683	24	ORLEANS PARISH	70129SPCTR4100M	SPECTRUM CONTROL TECHNOLOGY INC	46	SPECTRUM CONTROL INC	4100 MICHOUD BLVD
30.847362	-90.127984	24	WASHINGTON PARISH	7053WGRNDS1212T	GRAND ISLE SHIPYARD INC	40	NANA DEVELOPMENT CORP	1212 TAFT ST
29.9396	-90.18957	24	JEFFERSON PARISH	70123XCHMN6120J	X-CHEM LLC	71	CLARIANT CORP	6120 JEFFERSON HWY
29.97785	-90.25007	24	JEFFERSON PARISH	70062SPRKL601MA	SPARKLETTS WATER SYSTEMS AQUA VEND	118	MCKESSON CORP	601 MARIA ST.
29.499305	-90.328678	24	LAFOURCHE PARISH	70345GLLNM1621E	GALLIANO MARINE SERVICES LLC	28	EDISON CHOUEST OFFSHORE	16201 E MAIN ST
29.989093	-90.457027	24	ST CHARLES PARISH	70057GRCCH7760R	IMC PHOSPHATES MP INC. TAFT PLANT	214	IMC GLOBAL INC	17245 RIVER RD.
30.55793	-91.20132	24	EAST BATON ROUGE PARISH	70807LCHMN12537	LE CHEM INC.	173		12537 SCENIC HWY.
29.983739	-91.783565	24	IBERIA PARISH	70560BGMCWCURTI	BIG MAC WELDING INC.	311		CURTIS LN.
30.0413	-91.874141	24	IBERIA PARISH	70560PRDVT1218H	AVIATION EXTERIORS LOUISIANA INC	117	TRAVEL BY US	1218 HANGAR DR
30.230062	-93.294505	24	CALCASIEU PARISH	70669JPTRCPETEM	JUPITER CHEMICALS INC.	132	TESSENDERLO KERLEY INC	PETE MANENA RD.
29.83759	-90.04792	23	PLAQUEMINES PARISH	70037KNCLN2805E	KENCOIL INC	80		2805 ENGINEERS RD
29.899884	-90.078477	23	JEFFERSON PARISH	70059HYWLK800PE	HAY WILK GALVANIZING INC	94		800 PETERS RD
29.93989	-90.18926	23	JEFFERSON PARISH	70123CNTNR6000J	GREIF PACKAGING LLC	71	GREIF INC	6000 JEFFERSON HWY
29.94409	-90.19248	23	JEFFERSON PARISH	70123TLSST325HO	ATLAS STEEL & WIRE GERDAU AMERISTEEL US INC	105	GERDAU AMERISTEEL US INC	325 HORD ST
29.94707	-90.19255	23	JEFFERSON PARISH	70123WCHMN5734S	WECHEM INC	105		5734 SUSITNA DR
29.97699	-90.2401	23	JEFFERSON PARISH	70062PLLRN700JA	PELLERIN MILNOR CORP.	83		700 JACKSON ST.
29.985078	-90.453863	23	ST CHARLES PARISH	70057CCDNTLAHWA	OCCIDENTAL CHEMICAL CORP. TAFT AMMONIA TERMINAL	103	OCCIDENTAL PETROLEUM CORP	LA HWY. 3142
31.049037	-92.037929	23	AVOYELLES PARISH	71350STRMN233HW	ST ROMAIN OIL CO LLC	73		233 HWY 1186
30.186553	-93.340252	23	CALCASIEU PARISH	70602CTGPTHIGHW	CITGO PETROLEUM CORP	128	CITGO HOLDING INC.	1601 HWY 108 E
29.930278	-89.943889	22.5	ST BERNARD PARISH	70075MRPHY2500E	VALERO REFINING - MERAUX LLC MERAUX REFINERY	120	VALERO ENERGY CORP	2500 E ST BERNARD HWY
30.01781	-89.93145	22	ORLEANS PARISH	70129HNSNP1321L	FORTERRA PIPE & PRECAST - NEW ORLEANS	40	FORTERRA INC	13201 OLD GENTILLY RD
30.02626	-90.03014	22	ORLEANS PARISH	70126NLBRD8000J	BAROID DRILLING FLUIDS INC.	70	DRESSER INDUSTRIES INC	8000 JOURDON
29.95052	-90.055	22	ORLEANS PARISH	70114BLLNG435PO	BOLLINGER ALGIERS L.L.C.	151	BOLLINGER SHIPYARDS LOCKPORT LLC	434 POWDER ST
29.90193	-90.12848	22	JEFFERSON PARISH	70073THCLT7500F	KNIGHT-CELOTEX LLC	114	KNIGHT INDUSTRIES LLC	7500 FOURTH ST
30.056742	-90.52429	22	ST JOHN THE BAPTIST PARIS	*	*	77	E I DU PONT DE NEMOURS & CO	560 HIGHWAY 44
30.482695	-90.921592	22	LIVINGSTON PARISH	70727DLTPR9929F	DELTA ENVIRONMENTAL PRODUCTS	224	PENTAIR INC	8263 FLORIDA BLVD
30.21937	-91.83838	22	ST MARTIN PARISH	7058WSTBLT538MA	STABILTEC DOWNHOLE TOOLS	367		5308 MAIN HWY
30.22324	-93.15612	22	CALCASIEU PARISH	70615NRTHR4400L	NORTHROP GRUMMAN CORP.	168	NORTHROP GRUMMAN CORP	4400 SEN. J. B. JOHNSTON AVE.
30.223148	-93.156224	22	CALCASIEU PARISH	70602BNGLS4400L	BOEING LOUISIANA INC.	166	BOEING CO	4400 LEGION ST.
30.302057	-89.842076	21	ST TAMMANY PARISH	70450STHRNHIGHW	SOUTHERN COATINGS INC.	165	PRATT & LAMBERT UNITED INC	2447 COVINGTON HWY.
29.82798	-90.02213	21	PLAQUEMINES PARISH	70143SNVYNBELLE	US NAVY NAVAL AIR STATION JOINT RESERVE BASE NEW ORLEANS	44	US DEPARTMENT OF DEFENSE	BELLE CHASSE HWY (LA23)
30.02235	-90.02459	21	ORLEANS PARISH	70126SGYPS5701L	US GYPSUM CO	35	USG CORP	5701 LEWIS RD
29.85168	-90.02554	21	PLAQUEMINES PARISH	70037CHGKP1610E	CMP COATINGS INC	58	CHUGOKU AMERICA HOLDINGS INC	1610 ENGINEERS RD
30.01329	-90.02556	21	ORLEANS PARISH	70186MLPRK5100J	MILPARK DRILLING FLUIDS NEW ORLEANS BARITE GRINDING FACILITY	85	BAKER HUGHES INC	5100 JOURDAN RD., P.O. BOX 26335
29.84316	-90.03898	21	PLAQUEMINES PARISH	70037HBSNG2402E	HOBSON GALVANIZING INC	22	AZZ INC	2402 ENGINEERS RD
29.8642	-90.06505	21	JEFFERSON PARISH	70058NRGYC2900P	BREDERO PRICE HARVEY PLANT	45		2900 PETERS RD
29.88758	-90.07416	21	JEFFERSON PARISH	70058VNSCP1255P	GREIF USA (DBA GREIF HARVEY DCS HARVEY)	58	GREIF USA	1255 PETERS RD
30.048591	-90.630941	21	ST JOHN THE BAPTIST PARIS	70051NLCCHRIVER	NALCO CO	158	ECOLAB INC	3599 HIGHWAY 44
30.48742	-90.92615	21	LIVINGSTON PARISH	70727BRCNNEDENC	BERCEN INC SOUTHERN DIV	92	CRANSTON PRINT WORKS CO	30140 EDEN CHURCH RD
30.48703	-90.92627	21	LIVINGSTON PARISH	70726DLLCM9813J	ADELL COMPOUNDING	92	ADELL PLASTICS	9813 JC SUMMERS LN
30.032263	-91.863076	21	IBERIA PARISH	7056WMLTCH341WE	MULTI-CHEM GROUP NEW IBERIA FACILITY	170	HALLIBURTON ENERGY SERVICES INC.	3401 W ADMIRAL DOYLE DR
30.252222	-93.284444	21	CALCASIEU PARISH	70669GRGGL1600V	WESTLAKE LAKE CHARLES NORTH	82	WESTLAKE CHEMICAL CORP	1600 VCM PLANT RD
30.193843	-93.37907	21	CALCASIEU PARISH	70663BGTHRHIGHW	ALAC LAKE CHARLES ASU	107		3900 HWY 27 S
32.469444	-93.799444	21	CADDO PARISH	71109LBBYG4302J	LIBBEY GLASS INC	24	LIBBEY GLASS INC	4302 JEWELLA AVE
30.328775	-89.761158	20	ST TAMMANY PARISH	70458CPTLSUS11H	CMC STEEL FABRICATORS INC DBA CMC CAPITOL STEEL-SLIDELL	112	COMMERCIAL METALS CO	38324 HAAS RD
29.86873	-90.01449	20	PLAQUEMINES PARISH	70037LFRGN65ENG	LAFARGE NORTH AMERICAN INC ENGINEER RD RMX	21	LAFARGE NORTH AMERICA	605 ENGINEERS RD
29.842636	-90.057366	20	JEFFERSON PARISH	70059GRTNM4640P	BOLLINGER GRETNA LLC	96	BOLLINGER SHIPYARDS INC	4640 PETERS RD
30.476361	-90.457103	20	TANGIPAHOA PARISH	70404TKVLVHWY51	CAMERON INTERNATIONAL CORP	159	CAMERON INTERNATIONAL CORP	2175 SW RAILROAD AVE
29.80743	-90.82977	20	LAFOURCHE PARISH	70302CMCND244HW	JOHN DEERE THIBODAUX	105	DEERE & CO	244 HWY 3266
32.481819	-93.774645	20	CADDO PARISH	71103WLSNF2400K	WILSON FOODS CORP	20	FOODBRANDS AMERICA INC	2400 KINGS HWY
29.87011	-90.06729	19	JEFFERSON PARISH	7005WFBRGL28PET	FIBERGLASS SOLUTIONS LLC	47		2800 PETERS RD
29.91052	-90.0731	19	JEFFERSON PARISH	70058WTCCR1805F	CROMPTON CORP	53	CROMPTON CORP	1805 4TH ST
29.94173	-90.19122	19	JEFFERSON PARISH	70123TLSST223HO	ATLAS STEEL & WIRE CORP.  AMERISTEEL DIV.	80	AMERISTEEL CORP	223 HORD ST.
29.95681	-90.26952	19	JEFFERSON PARISH	70094CYRND18RIV	EVONIK CYRO LLC	111	EVONIK CORP	10800 RIVER RD
30.48656	-90.92654	19	LIVINGSTON PARISH	70726STRLN30113	STARLING INC	92		30113 EDEN CHURCH RD
29.958889	-90.270472	17	JEFFERSON PARISH	70094MRCNC10800	CORNERSTONE CHEMICAL CO-(FORTIER CHEM MFG COMPLEX)	100	CSTN HOLDINGS INC	10800 RIVER RD
30.000964	-90.403863	17	ST CHARLES PARISH	70079SHLLL1205R	SHELL NORCO CHEMICAL PLANT	68	SHELL OIL CO	15536 RIVER RD
29.80461	-90.8211	17	LAFOURCHE PARISH	70301GBRTL1201S	GAUBERT OIL CO INC	97		1201 ST PATRICK HWY
30.284435	-93.289873	17	CALCASIEU PARISH	70669NTRGY3500H	ENTERGY ROY S NELSON PLANT	90	ENTERGY CORP	3500 HO US TON RIVER RD
30.20925	-93.34463	17	CALCASIEU PARISH	70663RSNSY2885S	RESIN SYSTEMS INC	164		1586 SWISCO RD
29.87758	-90.07063	15	JEFFERSON PARISH	70058SLTHL2226P	SALATHE OIL CO.	90		2226 PETERS RD.
29.681637	-91.456385	15	ST MARY PARISH	70522CLMBNHIGHW	BIRLA CARBON USA INC	43	ADITYA BIRLA GROUP	370 COLUMBIAN CHEMICALS LN
30.03441	-91.86847	15	IBERIA PARISH	70560HLLBR3811T	HALLIBURTON ENERGY SERVICES CPS MANUFACTURING NEW IBERIA	54	HALLIBURTON CO INC	3811 3RD ST.
30.18079	-92.0198	15	LAFAYETTE PARISH	70508CDNBT700KA	ACADIANA BOTTLING CO. INC.	56		700 KALISTE SALOOM RD.
30.234426	-92.725189	14	JEFFERSON DAVIS PARISH	7058WMTLPL1455F	METALPLATE GALVANIZING LP	88	METALPLATE GALVANIZING LP	14055 FARM SUPPLY RD
30.234301	-93.126616	14	CALCASIEU PARISH	70615GLFCS627LE	GULF COAST CHEMICAL LLC	65	GULF COAST COS INC	6207 LESLIE LN
29.95862	-90.27179	13	JEFFERSON PARISH	70094KMRWT18RIV	KEMIRA CHEMICALS INC	26	KEMIRA CHEMICALS INC	10800 RIVER RD
30.232356	-93.28753	9	CALCASIEU PARISH	70669LQDRCCOLUM	ALAC WESTLAKE ASU	25		1093 COLUMBIA SOUTHERN RD
29.94685	-90.02265	0	ORLEANS PARISH	70114VNDLN3101P	AVONDALE INDUSTRIES INC ALGIERS DIV.	0	AVONDALE INDUSTRIES INC	3101 PATTERSON RD.
29.85683	-90.06245	0	JEFFERSON PARISH	7005WFMTSH364PE	FMT SHIPYARD & REPAIR LLC	0		3640 PETERS RD
29.9603	-90.08732	0	ORLEANS PARISH	70119DXBRW2401T	DIXIE BREWING CO INC	0		2401 TULANE AVE
29.95948	-90.10275	0	ORLEANS PARISH	70125LSNCC1050S	LOUISIANA COCA-COLA BOTTLING CO LTD	0	COCA-COLA ENTERPRISES INC	1050 S JEFFERSON DAVIS PKWY
29.97431	-90.15261	0	JEFFERSON PARISH	70001DLTPT3011L	SAFETY-KLEEN SYSTEMS - METAIRIE	0	CLEAN HARBORS INC	3000 AIRLINE DR
29.134052	-90.198787	0	LAFOURCHE PARISH	7035WCPRTX3ADAM	C-PORT 3	0		635 ADAM TED GISCLAIR RD
30.002147	-90.397025	0	ST CHARLES PARISH	70079CCRBN81PRS	RAIN CII CARBON LLC	0	RAIN CII CARBON LLC	801 PROSPECT AVE
29.987341	-90.445067	0	ST CHARLES PARISH	70057NNCRBHWY31	ST CHARLES OPERATIONS (TAFT/STAR) UNION CARBIDE CORP	0	THE DOW CHEMICAL CO	355 LA HWY 3142 (GATE 1)
29.98553	-90.44728	0	ST CHARLES PARISH	7005WRKMML355HW	ARKEMA COATING RESINS	0	ARKEMA DELAWARE INC	355 HIGHWAY 3142
30.059161	-90.56423	0	ST JOHN THE BAPTIST PARIS	70084DTCHM534WE	DATACHEM INC.	0		711 W. 10TH AVE.
30.06271	-90.58817	0	ST JOHN THE BAPTIST PARIS	7005WRPRDC4663W	AIR PRODUCTS & CHEMICALS INC - GARYVILLE SMR	0	AIR PRODUCTS & CHEMICALS INC	4663 WEST AIRLINE HWY. (WITHIN MARATHON PETROLEUM
30.061314	-90.599295	0	ST JOHN THE BAPTIST PARIS	7008WLFRGR452TE	LAFARGE HAGAN PLANT	0	LAFARGE NA	452 TERRE HAUTE RD
30.0677	-90.60779	0	ST JOHN THE BAPTIST PARIS	70051PSLNP1EPSI	PINNACLE POLYMERS	0	POLYCHIM USA INC	ONE PINNACLE AVE
30.05955	-90.666842	0	ST JAMES PARISH	70052GRMRC114JE	RAIN CII CARBON LLC	0	RAIN CII CARBON LLC	1140 JEFFERSON HWY
30.04918	-90.68403	0	ST JAMES PARISH	70052CLNLS129FI	LOUISIANA SUGAR REFINERY (LSR)	0	LSR-LOUISIANA SUGAR REFINERING LLC	1230 S FIFTH AVE
29.68754	-90.78492	0	TERREBONNE PARISH	7035WHWCMT3639W	HOWCO METALS MANAGEMENT LLC	0	HOWCO METALS MANAGEMENT LLC	3639 W PARK AVE
29.7854	-90.81326	0	LAFOURCHE PARISH	70301QPLNC800SA	QPL INC	0		800 S ACADIA RD
29.79889	-90.85668	0	LAFOURCHE PARISH	70301LFRCHPOBOX	LAFOURCHE SUGARS CORP.	0		141 LEIGHTON QUARTERS RD.
30.203595	-91.009457	0	ASCENSION PARISH	7073WDYNMC36187	REG GEISMAR LLC	0	RENEWABLE ENERGY GROUP INC	36187 HWY 30
30.22847	-91.05435	0	ASCENSION PARISH	70734LLDSGHWY31	HONEYWELL INTERNATIONAL INC GEISMAR PLANT	0	HONEYWELL INTERNATIONAL INC	5525 HWY 3115
30.26806	-91.14767	0	IBERVILLE PARISH	7076WFLPMN2679H	FLOPAM INC	0	SNF HOLDING CO	26790 HWY 405
30.553364	-91.202428	0	EAST BATON ROUGE PARISH	70807HCHST11911	DELTECH CORP	0		11911 SCENIC HWY
29.707659	-91.263104	0	ST MARY PARISH	70380CMRNN37HWY	CAMERON INTERNATIONAL CORP	0	SCHLUMBERGER HOLDINGS CORP	3007 HWY 182
29.691041	-91.269827	0	ST MARY PARISH	70380STMRYCORNE	AZZ GALVANIZING - MORGAN CITY	0	AZZ INC	1618 HWY 182 E
29.68057	-91.277293	0	ST MARY PARISH	7038WCMRNN55HIG	CAMERON INTERNATIONAL CORP	0	SCHLUMBERGER HOLDINGS CORP	585 HIGHWAY 90 EAST
29.8042	-91.4935	0	ST MARY PARISH	70538STRLNSTERL	STERLING SUGARS INC.	0		609 IRISH BEND RD.
30.15771	-91.82103	0	ST MARTIN PARISH	70582NNNDRHIGHW	MARTIN MILLS INC.	0	FRUIT OF THE LOOM INC	6261 MAIN HWY.
30.14614	-91.94132	0	LAFAYETTE PARISH	7051WNVGMM21IDA	NOV GAMMALOY BROUSSARD	0	NATIONAL OILWELL VARCO LP	201 IDA RD
30.56982	-92.07645	0	ST LANDRY PARISH	70570FMCCRHWY18	FMC CORP AGRICULTURE PRODUCTS GROUP	0	FMC CORP	100 ST LOUIS  AVE
32.6907	-92.0826	0	OUACHITA PARISH	71280NGSCHLAHWY	ANGUS CHEMICAL CO	0		350 LOUISIANA HWY 2
30.71606	-92.265061	0	EVANGELINE PARISH	70586CMRNRNO6HO	CAMERON INTERNATIONAL CORP	0	SCHLUMBERGER HOLDINGS CORP	257 HOLLOWAY BLVD
30.236389	-93.266389	0	CALCASIEU PARISH	70669RCCHM900AI	LYONDELL CHEMICAL CO	0	LYONDELL CHEMICAL CO INC	900 INTERSTATE 10 W
30.232296	-93.286833	0	CALCASIEU PARISH	70669RLQDM1095P	AIR LIQUIDE AMERICA CORP	0		1091-A  PPG DR
30.227017	-93.298194	0	CALCASIEU PARISH	70664CRTNTPETEM	CERTAINTEED CORP	0	SAINT-GOBAIN CORP	3300 PETE MANENA RD
30.23701	-93.31239	0	CALCASIEU PARISH	70663LPHCH4809E	ALPHACHEM INC.	0	ENCLEAN INC	4809 E. NAPOLEON ST.
32.450347	-93.771517	0	CADDO PARISH	71108CRYST6140U	CRYSTAL CLEAN SERVICES LLC	0		6140 UNION AVE
32.39118	-93.80734	0	CADDO PARISH	71118TTNFR9595M	AVAYA INC	0	AVAYA INC	2929 BAIRD RD
32.90203	-93.98217	0	CADDO PARISH	71082LYMPCHWY1N	OLYMPIC FASTENERS USA INC	0	GESIPA FASTENERS USA INC	1830 N PINE
30.6283	-117.41315	0	EAST BATON ROUGE PARISH	70791MTCHS18585	US COMPOSITE PIPE SOUTH	0	KEN THOMPSON INC (KTI)	18585 SAMUELS RD
